lat,lon,Name,Adresse, Nb de places BePark,
48.9713209,2.0784724,Indigo - Achères Parc-Relais,1 RUE CAMILLE JENATZY 78260 ACHÈRES, 78005001,lat,lon,Name,Adresse, Nb de places BePark,
44.2041580,0.6205512,Indigo - Carnot-Lafayette,117 BOULEVARD CARNOT  47000 AGEN FRANCE, 47001006,lat,lon,Name,Adresse, Nb de places BePark,
44.2041297,0.6156075,Indigo - Reine Garonne,15 RUE GARONNE  47000 AGEN FRANCE, 47001008,lat,lon,Name,Adresse, Nb de places BePark,
44.2070575,0.6251333,Indigo - Gare SURFACE - P2,RUE BRONDEAU DE SENELLES  47000 AGEN FRANCE, 47001009,lat,lon,Name,Adresse, Nb de places BePark,
44.2055206,0.6095507,Indigo - Duvergé,RUE DUVERGÉ  47000 AGEN FRANCE, 47001010,lat,lon,Name,Adresse, Nb de places BePark,
44.2070575,0.6251333,Indigo - Gare STRUCTURE - P1,RUE BRONDEAU DE SENELLES  47000 AGEN FRANCE, 47001011,lat,lon,Name,Adresse, Nb de places BePark,
43.5666609,4.1932664,Indigo - Voirie et parcs en enclos,1 BOULEVARD GAMBETTA 30220 FRANCE, 300401,lat,lon,Name,Adresse, Nb de places BePark,
45.6752545,6.3918151,Indigo - Hôtel de Ville,11 PLACE DU 11 NOVEMBRE 1918  73200 ALBERTVILLE FRANCE, 73011004,lat,lon,Name,Adresse, Nb de places BePark,
49.8726144,2.2537694,Indigo - CHU Amiens Picardie,1 ROND-POINT DU PROFESSEUR CHRISTIAN CABROL  80054 AMIENS FRANCE, 80021020,lat,lon,Name,Adresse, Nb de places BePark,
43.5902915,7.1182129,Indigo - Théâtre Anthea,260 AVENUE JULES GREC  06600 ANTIBES FRANCE, 06004003,lat,lon,Name,Adresse, Nb de places BePark,
44.6617812,-1.1708731,Indigo - Centre Ville - Plage,14 RUE JÉHENNE  33120 ARCACHON FRANCE, 33009001,lat,lon,Name,Adresse, Nb de places BePark,
44.6596968,-1.1663012,Indigo - Centre-Ville Gare,ESPLANADE GEORGES POMPIDOU  33120 ARCACHON FRANCE, 33009002,lat,lon,Name,Adresse, Nb de places BePark,
48.9431203,2.2496270,Indigo - Paul Vaillant Couturier,22 - 26 RUE DE LA LIBERTE  95100 ARGENTEUIL  FRANCE, 95018001,lat,lon,Name,Adresse, Nb de places BePark,
48.9444757,2.2533809,Indigo - Côté Seine,50 AVENUE DU MARECHAL FOCH 95100 ARGENTEUIL FRANCE, 95018002,lat,lon,Name,Adresse, Nb de places BePark,
48.9542227,2.2299024,Indigo - Provence,RUE COUDRAY  95100 ARGENTEUIL  FRANCE, 95018003,lat,lon,Name,Adresse, Nb de places BePark,
48.9480530,2.2327390,Indigo - Val d'Argent Sud,4 RUE MONTESQUIEU 95199 ARGENTEUIL, ,lat,lon,Name,Adresse, Nb de places BePark,
48.9542227,2.2299024,Indigo - Allobroges,RUE COUDRAY  95100 ARGENTEUIL  FRANCE, 95018004,lat,lon,Name,Adresse, Nb de places BePark,
48.9525438,2.2242875,Indigo - Europe,RUE DE LA BERIONNE 95100 ARGENTEUIL FRANCE, 95018005,lat,lon,Name,Adresse, Nb de places BePark,
48.9512836,2.2211803,Indigo - Bapaume,5 RUE DE LA BÉRIONNE 95100 ARGENTEUIL, 95018006,lat,lon,Name,Adresse, Nb de places BePark,
48.9525827,2.2289623,Indigo - Commune de Paris,10 ALLÉE SOULEZARD 95100 ARGENTEUIL, 95018007,lat,lon,Name,Adresse, Nb de places BePark,
48.9492168,2.2282675,Indigo - Terrasses,PLACE DE LA COMMUNE DE PARIS 95100 ARGENTEUIL  FRANCE, 95018008,lat,lon,Name,Adresse, Nb de places BePark,
48.9492168,2.2282675,Indigo - Montesquieu,  95100 ARGENTEUIL  FRANCE, 95018009,lat,lon,Name,Adresse, Nb de places BePark,
48.9523789,2.2236509,Indigo - La Frette,12 RUE DE LA BERIONNE 95100 ARGENETUIL, 95018010,lat,lon,Name,Adresse, Nb de places BePark,
48.9554401,2.2314060,Indigo - Cévennes, 2 RUE DU COUDRAY  95100 ARGENTEUIL  FRANCE, 95018011,lat,lon,Name,Adresse, Nb de places BePark,
50.2955851,2.7568580,Indigo - Centre Hospitalier Arras,57 AVENUE WINSTON CHURCHILL  62022 ARRAS FRANCE, 62041001,lat,lon,Name,Adresse, Nb de places BePark,
48.9104536,2.2873510,Indigo - TPS SPHVA,1 RUE AUGUSTE MAYET 92600 ASNIÈRES-SUR-SEINE FRANCE, 9202102,lat,lon,Name,Adresse, Nb de places BePark,
48.9716994,1.8494204,Indigo - Aubergenville Gare,2 RUE LÉO FERRÉ, 78410 AUBERGENVILLE, 78029002,lat,lon,Name,Adresse, Nb de places BePark,
48.9137012,2.3797652,Indigo - Marché du Centre,FACE AU 5, RUE PASTEUR  93300 AUBERVILLIERS FRANCE, 93066024,lat,lon,Name,Adresse, Nb de places BePark,
48.9105598,2.3834404,Indigo - aubervilliers Théatre,31 RUE EDOUARD POISSON  93300 AUBERVILLIERS FRANCE, 93066025,lat,lon,Name,Adresse, Nb de places BePark,
48.9138931,2.3829860,Indigo - Aubervilliers Pesqué,RUE DU DOCTEUR PESQUÉ, 93001003,lat,lon,Name,Adresse, Nb de places BePark,
43.9490783,4.8034783,Indigo - Oratoire,28 BIS, RUE JOSEPH VERNET  84000 AVIGNON FRANCE, 84007001,lat,lon,Name,Adresse, Nb de places BePark,
43.9432666,4.8065208,Indigo - Jean Jaurès,02. AVENUE DE LATTRE DE TASSIGNY  84000 AVIGNON FRANCE, 84007003,lat,lon,Name,Adresse, Nb de places BePark,
43.9209450,4.8059519,Indigo - Centre Hospitalier d'Avignon,RUE RAOUL FOLLEREAU 84000 AVIGNON, 84007007,lat,lon,Name,Adresse, Nb de places BePark,
48.8661655,2.4166785,Indigo - Porte de Bagnolet,PARC RELAIS GALLIÉNI RUE JEAN JAURES 93170 BAGNOLET FRANCE, 93006001,lat,lon,Name,Adresse, Nb de places BePark,
48.8653078,2.4153621,Indigo - Centre Commercial Bel Est,28 AVENUE DU GÉNÉRAL DE GAULLE  93170 BAGNOLET FRANCE, 93006003,lat,lon,Name,Adresse, Nb de places BePark,
43.7440625,7.4261820,Indigo - Libération,1 PLACE DE LA LIBERATION  06240 BEAUSOLEIL  FRANCE, 06012001,lat,lon,Name,Adresse, Nb de places BePark,
43.7479435,7.4246158,Indigo - Belle-époque,AVENUE DE GENERAL DE GAULLE  6240 BEAUSOLEIL  FRANCE, 06012002,lat,lon,Name,Adresse, Nb de places BePark,
43.7389921,7.4136230,Indigo - Beausoleil Victor Hugo,AVENUE PAUL DOUMER  06240 BEAUSOLEIL  FRANCE, 06012004,lat,lon,Name,Adresse, Nb de places BePark,
49.4325455,2.0892435,Indigo - Jeu de Paume,4 BLD SAINT ANDRÉ  60000 BEAUVAIS FRANCE, 60057006,lat,lon,Name,Adresse, Nb de places BePark,
49.4350323,2.0856401,Indigo - Hôtel-Dieu,PLACE DE L'HÔTEL DIEU BEAUVAIS, 60057008,lat,lon,Name,Adresse, Nb de places BePark,
49.4295387,2.0807123,Indigo - FOCH,  60000 BEAUVAIS FRANCE, 60057004,lat,lon,Name,Adresse, Nb de places BePark,
49.4295387,2.0807123,Indigo - Hôtel de Ville,  60000 BEAUVAIS FRANCE, 60057005,lat,lon,Name,Adresse, Nb de places BePark,
47.6396740,6.8638490,Indigo - Nouvelles Galeries,RUE DE L'AS DE CARREAUX  900000 BELFORT FRANCE, 90010002,lat,lon,Name,Adresse, Nb de places BePark,
50.5278281,2.6432778,Indigo - Lille et Béthune Carrefour,66 RUE DE LILLE  62400 BÉTHUNE FRANCE, 62119001,lat,lon,Name,Adresse, Nb de places BePark,
48.9275620,2.2165800,Indigo - Bezons Cœur de Ville,54 EDOUARD VAILLANT BEZONS, 9506301,lat,lon,Name,Adresse, Nb de places BePark,
43.4826407,-1.5604067,Indigo - Bellevue,15 PLACE GEORGES CLEMENCEAU  64200 BIARRITZ FRANCE, 64122008,lat,lon,Name,Adresse, Nb de places BePark,
43.4812629,-1.5547203,Indigo - Verdun Médiathèque,5 RUE BEAU SÉJOUR  64200 BIARRITZ FRANCE, 64122009,lat,lon,Name,Adresse, Nb de places BePark,
43.4834060,-1.5594224,Indigo - Casino,29, BOULEVARD DU GÉNÉRAL DE GAULLE  64200 BIARRITZ FRANCE, 64122002,lat,lon,Name,Adresse, Nb de places BePark,
43.4806176,-1.5589170,Indigo - Halles Clemenceau,16, AVENUE FOCH  64200 BIARRITZ FRANCE, 64122003,lat,lon,Name,Adresse, Nb de places BePark,
43.4823425,-1.5636740,Indigo - Sainte Eugénie,2 PLACE SAINTE EUGÉNIE  64200 BIARRITZ FRANCE, 64122004,lat,lon,Name,Adresse, Nb de places BePark,
43.4622142,-1.5561932,Indigo - Gare du Midi,12 RUE FRANÇOIS MAURIAC  64200 BIARRITZ FRANCE, 64122005,lat,lon,Name,Adresse, Nb de places BePark,
43.4852868,-1.5570784,Indigo - Grande Plage,5 BOULEVARD DE GAULLE  64200 BIARRITZ FRANCE, 64122006,lat,lon,Name,Adresse, Nb de places BePark,
43.4766898,-1.5494157,Indigo - Kléber,BOULEVARD D'AUGUSTA 64200 BIARRITZ, 64122011,lat,lon,Name,Adresse, Nb de places BePark,
43.4660819,-1.5405433,Indigo - Chapelet,RUE CHAPELET 64200 BIARRITZ, 64122012,lat,lon,Name,Adresse, Nb de places BePark,
43.4597740,-1.5686110,Indigo - Dorziat,50 ALLÉE GABRIELLE DORZIAT 64200 BIARRITZ, 64122013,lat,lon,Name,Adresse, Nb de places BePark,
43.4667765,-1.5715843,Indigo - Milady,65 AVENUE DE LA MILADY 64200 BIARRITZ, 64122014,lat,lon,Name,Adresse, Nb de places BePark,
43.6344201,1.3972607,Indigo - Centre-Ville,3 PLACE JEAN LOUIS PUIG  31700 BLAGNAC FRANCE, 31069001,lat,lon,Name,Adresse, Nb de places BePark,
48.9066091,2.4507573,Indigo - Bobigny Coeur de Ville,RUE CARNOT  93000 BOBIGNY FRANCE, 93008001,lat,lon,Name,Adresse, Nb de places BePark,
48.8955191,2.4775020,Indigo - Gare,119 RUE ROGER SALENGRO  93140 BONDY  FRANCE, 93010002,lat,lon,Name,Adresse, Nb de places BePark,
48.9036746,2.4801066,Indigo - Anne Frank,30 RUE AUGUSTE POLLISSARD  93140 BONDY  FRANCE, 93010004,lat,lon,Name,Adresse, Nb de places BePark,
44.8278168,-0.6042761,Indigo - Groupe Hospitalier Pellegrin,GROUPE HOSPITALIER PELLEGRIN PLACE AMÉLIE RABA-LÉON 33000 BORDEAUX FRANCE, 33063008,lat,lon,Name,Adresse, Nb de places BePark,
44.8257911,-0.5588787,Indigo - P3 - Gare Saint Jean Belcier,ROND POINT PIERRE SEMARD  33800 BORDEAUX FRANCE, 33063009,lat,lon,Name,Adresse, Nb de places BePark,
44.8257911,-0.5588787,Indigo - P4 Gare Saint Jean Belcier,ROND POINT PIERRE SEMARD  33800 BORDEAUX FRANCE, 33063010,lat,lon,Name,Adresse, Nb de places BePark,
44.8219739,-0.5466860,Indigo - Ars Belcier,16 RUE DES MARAÎCHERS  33000 BORDEAUX FRANCE, 33063012,lat,lon,Name,Adresse, Nb de places BePark,
44.8235736,-0.5562783,Indigo - P3 - Dépose Minute - Zone Premium,PONT DU GUIT 33000 BORDEAUX FRANCE, 33063013,lat,lon,Name,Adresse, Nb de places BePark,
44.8391249,-0.5720917,Indigo - Camille Jullian,2 PLACE CAMILLE JULLIAN  33000 BORDEAUX FRANCE, 33063014,lat,lon,Name,Adresse, Nb de places BePark,
44.8255768,-0.5476092,Indigo - Brienne,QUAI DE PALUDATE 102 33800 BORDEAUX FRANCE, 33063020,lat,lon,Name,Adresse, Nb de places BePark,
44.8789273,-0.5684735,Indigo - Parking Centre Commercial Ginko,AVENUE DES 40 JOURNAUX  33300 BORDEAUX FRANCE, 33063016,lat,lon,Name,Adresse, Nb de places BePark,
44.8650479,-0.5597639,Indigo - Les Bassins,RUE LUCIEN FAURE, 33063017,lat,lon,Name,Adresse, Nb de places BePark,
44.8364002,-0.5552712,Indigo - BELVEDERE,QUAI DESCHAMPS 33100 BORDEAUX, 330018,lat,lon,Name,Adresse, Nb de places BePark,
44.8424104,-0.5611254,Indigo - Bordeaux Bastide,ALLÉE DE SERR 33000 BORDEAUX, 330019,lat,lon,Name,Adresse, Nb de places BePark,
44.8406781,-0.5705285,Indigo - TPS Bourse & Jean-Jaurès,2 PLACE DE LA BOURSE 33000 BORDEAUX, 33063021,lat,lon,Name,Adresse, Nb de places BePark,
44.8294056,-0.5622993,Indigo - TPS Meunier,PLACE ANDRÉ MEUNIER 33000 BORDEAUX, 33063022,lat,lon,Name,Adresse, Nb de places BePark,
44.8355141,-0.5649779,Indigo - TPS Salinières,12, QUAI DES SALINIÈRES 33000 BORDEAUX, 33063023,lat,lon,Name,Adresse, Nb de places BePark,
44.8439410,-0.5762820,Indigo - TPS Tourny,PLACE DES ALLÉES DE TOURNY, 33063024,lat,lon,Name,Adresse, Nb de places BePark,
48.8337352,2.2576582,Indigo - Point du Jour,PLACE ABEL GANCE 92100 BOULOGNE-BILLANCOURT, 92012002,lat,lon,Name,Adresse, Nb de places BePark,
48.8364585,2.2430207,Indigo - Bellefeuille,20 QUATER, RUE DE LA BELLEFEUILLE  92100 BOULOGNE-BILLANCOURT FRANCE, 92012011,lat,lon,Name,Adresse, Nb de places BePark,
48.8319213,2.2415693,Indigo - Marché,150 RUE DU VIEUX PONT DE SÈVRES  92100 BOULOGNE-BILLANCOURT FRANCE, 92012012,lat,lon,Name,Adresse, Nb de places BePark,
48.8310914,2.2401584,Indigo - Heyrault,PARKING RÉSERVÉ AUX ABONNES 12 BIS ET 14 RUE HEYRAULT 92100 BOULOGNE-BILLANCOURT FRANCE, 92012013,lat,lon,Name,Adresse, Nb de places BePark,
48.8246009,2.2367980,Indigo - Rives de Seine,38, QUAI GEORGES GORSE  92100 BOULOGNE-BILLANCOURT FRANCE, 92012015,lat,lon,Name,Adresse, Nb de places BePark,
48.8264920,2.2337623,Indigo - Cours de l'Ile Seguin,55, COURS DE L'ILE SEGUIN  92100 BOULOGNE-BILLANCOURT FRANCE, 92012016,lat,lon,Name,Adresse, Nb de places BePark,
48.8314259,2.2356865,Indigo - Forum Pont de Sèvres,90 AVENUE GÉNÉRAL LECLERC 92100, 9201218,lat,lon,Name,Adresse, Nb de places BePark,
48.6968394,2.1624263,Indigo - Parc Relais Gare,05 RUE DU GÉNÉRAL LECLERC  91440 BURES SUR YVETTE FRANCE, 91122001,lat,lon,Name,Adresse, Nb de places BePark,
48.6942634,2.1526802,Indigo - Parc Relais Hacquinière,27, AVENUE DU MARÉCHAL FOCH  91440 BURES SUR YVETTE FRANCE, 91122002,lat,lon,Name,Adresse, Nb de places BePark,
48.8369544,2.7078858,Indigo - Relais Bienvenue,5 BOULEVARD PIERRE MENDÈS FRANCE  77600 BUSSY-SAINT-GEORGES, 770503,lat,lon,Name,Adresse, Nb de places BePark,
49.1856374,-0.3602124,Indigo - Château,60 AVENUE DE LA LIBÉRATION  14000 CAEN FRANCE, 14118001,lat,lon,Name,Adresse, Nb de places BePark,
49.1813554,-0.3699256,Indigo - Hôtel de Ville,16, PLACE GUILLOUARD  14000 CAEN FRANCE, 14118002,lat,lon,Name,Adresse, Nb de places BePark,
49.1821242,-0.3652389,Indigo - Doumer,7 RUE PAUL DOUMER  14000 CAEN FRANCE, 14118003,lat,lon,Name,Adresse, Nb de places BePark,
49.1818904,-0.3631572,Indigo - République,3 PLACE DE LA RÉPUBLIQUE  14000 CAEN FRANCE, 14118004,lat,lon,Name,Adresse, Nb de places BePark,
49.1814449,-0.3559660,Indigo - Résistance,1 PLACE DE LA RÉSISTANCE  14000 CAEN FRANCE, 14118005,lat,lon,Name,Adresse, Nb de places BePark,
49.1791550,-0.3666680,Indigo - Gardin,PLACE GARDIN  14000 CAEN FRANCE, 14118007,lat,lon,Name,Adresse, Nb de places BePark,
49.1684631,-0.3455667,Indigo - Polyclinique du Parc,AVENUE GUYNEMER  14000 CAEN FRANCE, 14118010,lat,lon,Name,Adresse, Nb de places BePark,
49.1845734,-0.3573206,Indigo - Courtonne,COURTONNE  14000 CAEN FRANCE, 14118011,lat,lon,Name,Adresse, Nb de places BePark,
49.1923387,-0.3796444,Indigo - Plaisance 1,PLAISANCE 1  14000 CAEN FRANCE, 14118012,lat,lon,Name,Adresse, Nb de places BePark,
49.1923387,-0.3796444,Indigo - Plaisance 2,PLAISANCE 2  14000 CAEN FRANCE, 14118013,lat,lon,Name,Adresse, Nb de places BePark,
49.1829882,-0.3466654,Indigo - Presqu'Ile - Tribunal,17 AVENUE VICTOR HUGO 14000 CAEN, 14118018,lat,lon,Name,Adresse, Nb de places BePark,
49.1786168,-0.3487423,Indigo - Les Rives de l'Orne,8 RUE ROSA PARKS  14000 CAEN FRANCE, 14118009,lat,lon,Name,Adresse, Nb de places BePark,
43.6642799,7.1280098,Indigo - Polygone Riviera,119 AVENUE DES ALPES  06800 CAGNES-SUR-MER FRANCE, 06027007,lat,lon,Name,Adresse, Nb de places BePark,
43.6642799,7.1280098,Indigo - Polygone Riviera Enclos,119 AVENUE DES ALPES  06800 CAGNES-SUR-MER FRANCE, 06027012,lat,lon,Name,Adresse, Nb de places BePark,
43.6576861,7.1657150,Indigo - Mattei et Renoir,PASSAGE DES PÊCHEURS  06800 CAGNES-SUR-MER FRANCE, 06027016,lat,lon,Name,Adresse, Nb de places BePark,
50.9485366,1.8549783,Indigo - Centre Ville,14 RUE DU TEMPLE  62100 CALAIS FRANCE, 62193001,lat,lon,Name,Adresse, Nb de places BePark,
50.1657611,3.2245350,Indigo - C H CAMBRAI,516 AVENUE DE PARIS  59407 CAMBRAI FRANCE, 59122001,lat,lon,Name,Adresse, Nb de places BePark,
43.5507261,7.0255666,Indigo - Palais Stéphanie,50 BD DE LA CROISETTE, 06400 CANNES, 06029001,lat,lon,Name,Adresse, Nb de places BePark,
48.9566820,4.3630730,Indigo - GHV,51000 CHALONS-EN-CHAMPAGNE FRANCE, 51108004,lat,lon,Name,Adresse, Nb de places BePark,
48.9579704,4.3614756,Indigo - Viviers,1 RUE DES VIVIERS   51000 CHALONS-EN-CHAMPAGNE FRANCE, 51108005,lat,lon,Name,Adresse, Nb de places BePark,
45.5684799,5.9187422,Indigo - PALAIS DE JUSTICE,2, PLACE DU PALAIS DE JUSTICE  73000 CHAMBÉRY FRANCE, 73065007,lat,lon,Name,Adresse, Nb de places BePark,
48.8126470,2.1922849,Indigo - Chaville Atrium,965 AVENUE ROGER SALENGRO, 92022003,lat,lon,Name,Adresse, Nb de places BePark,
48.8558506,2.7742368,Indigo - Place d'Ariane,PLACE D'ARIANE  77700 CHESSY FRANCE, 77111002,lat,lon,Name,Adresse, Nb de places BePark,
48.8692921,2.7846137,Indigo - Disney Village,DISNEY VILLAGE AVENUE PAUL SÉRAMY 77700 CHESSY FRANCE, 77111003,lat,lon,Name,Adresse, Nb de places BePark,
45.7825145,3.0888441,Indigo - Carmes Delille,RUE HENRI BARBUSSE  63000 CLERMONT-FERRAND FRANCE, 63113002,lat,lon,Name,Adresse, Nb de places BePark,
45.7609131,3.0895646,Indigo - Relais Henri Dunant,PLACE HENRI DUNANT  63000 CLERMONT-FERRAND FRANCE, 63113009,lat,lon,Name,Adresse, Nb de places BePark,
48.9024009,2.3044973,Indigo - Hôtel de Ville,80, BOULEVARD JEAN JAURÈS  92110 CLICHY FRANCE, 92024002,lat,lon,Name,Adresse, Nb de places BePark,
48.6676497,2.5468047,Indigo - Combs la Ville - Quincy,RUE DES BERGERIES  77380 COMBS-LA-VILLE FRANCE, 77122002,lat,lon,Name,Adresse, Nb de places BePark,
49.4175320,2.8235609,Indigo - Marché,PLACE DU MARCHÉ AUX HERBES  60200 COMPIÈGNE FRANCE, 60159002,lat,lon,Name,Adresse, Nb de places BePark,
49.4191133,2.8232161,Indigo - Solférino,9 RUE DE HARLAY  60200 COMPIÈGNE FRANCE, 60159003,lat,lon,Name,Adresse, Nb de places BePark,
49.4158683,2.8207373,Indigo - Centre,13 RUE DE BOUVINES  60200 COMPIÈGNE FRANCE, 60159004,lat,lon,Name,Adresse, Nb de places BePark,
49.4221209,2.8250842,Indigo - Gare,RUE FERDINAND SARRAZIN  60200 COMPIÈGNE FRANCE, 60159006,lat,lon,Name,Adresse, Nb de places BePark,
49.4193654,2.8195046,Indigo - Oise,20 RUE CLERMONT  60200 COMPIÈGNE FRANCE, 60159007,lat,lon,Name,Adresse, Nb de places BePark,
49.4171777,2.8270354,Indigo - Saint jacques,3 PLACE SAINT-JACQUES  60200 COMPIÈGNE FRANCE, 60159008,lat,lon,Name,Adresse, Nb de places BePark,
49.4144827,2.8206922,Indigo - Capucins,2 RUE DES CAPUCINS  60200 COMPIÈGNE FRANCE, 60159005,lat,lon,Name,Adresse, Nb de places BePark,
48.9919768,2.0752869,Indigo - Conflans Parc Relais Fin d'Oise,GARE FIN D'OISE 78700 CONFLANS STE HONORINE  78700 CONFLANS SAINTE-HONORINE FRANCE, 78172001,lat,lon,Name,Adresse, Nb de places BePark,
48.9974139,2.1010864,Indigo - Conflans Parc Armand Leprince,BLVD ARMAND 78700 CONFLANS STE HONORINE  78700 CONFLANS SAINTE-HONORINE FRANCE, 78172002,lat,lon,Name,Adresse, Nb de places BePark,
48.9982398,2.0993374,Indigo - Conflans Parc-Relais Fonderie,6 RUE DE LA FONDERIE 78700 CONFLANS STE HONORINE  78700 CONFLANS SAINTE-HONORINE FRANCE, 78172003,lat,lon,Name,Adresse, Nb de places BePark,
48.8916162,2.2441869,Indigo - Coeur Défense,10 AVENUE ANDRE PROTHIN  92049 COURBEVOIE FRANCE, 92026013,lat,lon,Name,Adresse, Nb de places BePark,
48.8951197,2.2382374,Indigo - Tour Egée,9-11 ALLÉE DE L'ARCHE  92400 COURBEVOIE FRANCE, 92026014,lat,lon,Name,Adresse, Nb de places BePark,
48.9859536,2.0060776,Indigo - Tour Egée - Prestation,9-11 RUE DE L'ARCHE  92400 COURBEVOIE FRANCE, 92026015,lat,lon,Name,Adresse, Nb de places BePark,
48.8957867,2.2394361,Indigo - Courbevoie Jacques Cartier,36, AVENUE LÉONARD DE VINCI 92400 COURBEVOIE, 920716,lat,lon,Name,Adresse, Nb de places BePark,
49.3611229,0.0799061,Indigo - Marché,2 RUE BRENEY 14800 DEAUVILLE, 14220002,lat,lon,Name,Adresse, Nb de places BePark,
49.3539760,0.0751220,Indigo - Les Lais de Mer,RUE RENALDO HAN  14800 DEAUVILLE, 14220004,lat,lon,Name,Adresse, Nb de places BePark,
49.3601317,0.0839871,Indigo - La Gare,PL LOUIS ARMAND 14800 DEAUVILLE, 14220007,lat,lon,Name,Adresse, Nb de places BePark,
49.3613166,0.0784521,Indigo - Quai de la Marine,LES JARDINS DU YACHT CLUB, RUE MIRABEAU, 14800 DEAUVILLE, 14220008,lat,lon,Name,Adresse, Nb de places BePark,
49.9234583,1.0749501,Indigo - De La Barre,RUE CLAUDE GROULARD  76200 DIEPPE FRANCE, 76217006,lat,lon,Name,Adresse, Nb de places BePark,
49.9246139,1.0789102,Indigo - Saint-Jacques,RUE DU CHÊNE PERCÉ  76200 DIEPPE FRANCE, 76217007,lat,lon,Name,Adresse, Nb de places BePark,
49.9283936,1.0782312,Indigo - La Plage,BOULEVARD DE VERDUN  76200 DIEPPE FRANCE, 76217008,lat,lon,Name,Adresse, Nb de places BePark,
49.9226837,1.0762921,Indigo - Hôtel de Ville,BOULEVARD MARÉCHAL JOFFRE 76200 DIEPPE FRANCE, 76217009,lat,lon,Name,Adresse, Nb de places BePark,
49.9321840,1.0832658,Indigo - Front de Mer,TRAVERSE HOUARD  76200 DIEPPE FRANCE, 76217010,lat,lon,Name,Adresse, Nb de places BePark,
49.9302870,1.0864090,Indigo - Quai de la Marne,QUAI DE LA MARNE  76200 DIEPPE FRANCE, 76217011,lat,lon,Name,Adresse, Nb de places BePark,
51.0349575,2.3477321,Indigo - Centre Commercial Pôle Marine,19 RUE DES FUSILIERS MARINS  59140 DUNKERQUE FRANCE, 59183012,lat,lon,Name,Adresse, Nb de places BePark,
48.9539060,2.3131717,Indigo - Centre commercial l'Ilo,5 AVENUE DE LATTRE DE TASSIGNY  93800 ÉPINAY-SUR-SEINE  FRANCE, 93031001,lat,lon,Name,Adresse, Nb de places BePark,
43.6572408,6.9220560,Indigo - Honoré Cresp,17 BOULEVARD FRAGONARD  06130 GRASSE FRANCE, 06069001,lat,lon,Name,Adresse, Nb de places BePark,
43.6604891,6.9222701,Indigo - La Foux,AVENUE DU MARÉCHAL JUIN  06130 GRASSE FRANCE, 06069004,lat,lon,Name,Adresse, Nb de places BePark,
43.6590829,6.9247291,Indigo - Hôtel de Ville - Cathédrale,PLACE AUX HERBES 06130 GRASSE FRANCE, 06069006,lat,lon,Name,Adresse, Nb de places BePark,
45.1805680,5.7052090,Indigo - Parcs-relais,PARC CATANE - 60 RUE AMPÈRE  38000 GRENOBLE FRANCE, 38185028,lat,lon,Name,Adresse, Nb de places BePark,
48.8146753,7.7806552,Indigo - Pôle d'échange multimodal,RUE DU MOULIN NEUF, 670301,lat,lon,Name,Adresse, Nb de places BePark,
43.3582431,-1.7743813,Indigo - Centre-Ville,RUE DE L EGLISE  64700 HENDAYE  FRANCE, 64260001,lat,lon,Name,Adresse, Nb de places BePark,
43.1189908,6.1282565,Indigo - Gambetta,PARKING GAMBETTA - 2 RUE DU SOLDAT BELLON ANTOINE  83400 HYÈRES FRANCE, 83069007,lat,lon,Name,Adresse, Nb de places BePark,
43.1210070,6.1310784,Indigo - Clémenceau,PLACE GEORGES CLEMENCEAU  83400 HYÈRES FRANCE, 83069008,lat,lon,Name,Adresse, Nb de places BePark,
43.1188464,6.1320898,Indigo - Casino,1 AVENUE AMBROISE THOMAS  83400 HYÈRES FRANCE, 83069009,lat,lon,Name,Adresse, Nb de places BePark,
43.1197793,6.1319187,Indigo - Joffre,PLACE MARÉCHAL JOFFRE  83400 HYÈRES FRANCE, 83069010,lat,lon,Name,Adresse, Nb de places BePark,
48.8306856,2.2656087,Indigo - Camille Desmoulins,56, RUE CAMILLE DESMOULINS  92130 ISSY-LES-MOULINEAUX FRANCE, 92040001,lat,lon,Name,Adresse, Nb de places BePark,
48.8256421,2.2587717,Indigo - Ile Saint Germain,169 BIS, QUAI DE STALINGRAD  92130 ISSY-LES-MOULINEAUX FRANCE, 92040005,lat,lon,Name,Adresse, Nb de places BePark,
48.8267340,2.2752062,Indigo - Coeur de Ville,RUE VICTOR HUGO  92130 ISSY-LES-MOULINEAUX FRANCE, 92040006,lat,lon,Name,Adresse, Nb de places BePark,
48.8245123,2.2737098,Indigo - Hôtel de Ville,60 RUE DU GÉNÉRAL LECLERC 92130 ISSY-LES-MOULINEAUX FRANCE, 92040008,lat,lon,Name,Adresse, Nb de places BePark,
48.8267006,2.2777159,Indigo - Corentin Celton,19, RUE VAUDETARD 92130 ISSY-LES-MOULINEAUX FRANCE, 92040009,lat,lon,Name,Adresse, Nb de places BePark,
48.8267340,2.2752062,Indigo - Issy Cœur de Ville P7,RUE VICTOR HUGO 92130 ISSY-LES-MOULINEAUX, 92040010,lat,lon,Name,Adresse, Nb de places BePark,
48.8267340,2.2752062,Indigo - Issy Cœur de Ville P8,RUE VICTOR HUGO 92130 ISSY-LES-MOULINEAUX, 92040011,lat,lon,Name,Adresse, Nb de places BePark,
48.8236155,2.3881201,Indigo - Quai d'Ivry,5, RUE FRANÇOIS MITTERRAND  94200 IVRY-SUR-SEINE FRANCE, 94041001,lat,lon,Name,Adresse, Nb de places BePark,
47.3491967,0.6643389,Indigo - Gamard Centre Ville,18 RUE GAMARD  37300 JOUÉ-LÉS-TOURS FRANCE, 37122002,lat,lon,Name,Adresse, Nb de places BePark,
48.7787059,2.3411283,Indigo - Halle des saveurs,13 RUE HENRI THIRARD, 941901,lat,lon,Name,Adresse, Nb de places BePark,
48.7779888,2.3430602,Indigo - Henri-Claude Thirard,RUE HENRI THIRARD, 94038001,lat,lon,Name,Adresse, Nb de places BePark,
48.7786818,2.3648094,Indigo - Paul Hochart,133 RUE PAUL HOCHART 94240, 94038002,lat,lon,Name,Adresse, Nb de places BePark,
48.7774385,2.3544404,Indigo - Lallier,137 RUE DE BICÊTRE 94240, 94038003,lat,lon,Name,Adresse, Nb de places BePark,
48.9256016,2.3342793,Indigo - Centrale Mobilité Ile Saint-Denis,QUAI DU CHÂTELIER – ZONE PRINTEMPS DE L’ÉCO-QUARTIER – ILE-SAINT-DENIS, 93066026,lat,lon,Name,Adresse, Nb de places BePark,
43.1789053,5.6081112,Indigo - Parc du Centre,BOULEVARD LAMARTINE  13600 LA CIOTAT FRANCE, 13028001,lat,lon,Name,Adresse, Nb de places BePark,
43.1738863,5.6036399,Indigo - Vieux Port,BD BERTOLUCCI  13600 LA CIOTAT FRANCE, 13028002,lat,lon,Name,Adresse, Nb de places BePark,
48.9278844,2.3910290,Indigo - La Courneuve Convention,RUE DE LA CONVENTION   93120 LA COURNEUVE  FRANCE, 93066001,lat,lon,Name,Adresse, Nb de places BePark,
48.9501771,3.1238945,Indigo - La Ferté-sous-Jouarre Parc Relais de la Gare,10, RUE DE LA GARE LA FERTÉ-SOUS-JOUARRE, 77183001,lat,lon,Name,Adresse, Nb de places BePark,
48.9505718,3.1257974,Indigo - La Ferté-sous-Jouarre Parc Relais de la Haute Vue,RUE DE LA GARE LA FERTÉ SOUS-JOUARRE, 77183002,lat,lon,Name,Adresse, Nb de places BePark,
48.9505070,3.1300590,Indigo - La Ferté-sous-Jouarre Parc Relais du Chevalier de la Barre,LA FERTÉ SOUS JOUARRE RUE DU CHEVALIER, 77183003,lat,lon,Name,Adresse, Nb de places BePark,
48.9096910,2.2470982,Indigo - Marché Liberté,PLACE DE LA LIBERTÉ  92250 LA GARENNE-COLOMBES FRANCE, 92035001,lat,lon,Name,Adresse, Nb de places BePark,
50.6553899,3.0603750,Indigo - Lille la Madeleine Carrefour Property,RUE DU PRÉ CATELAN  59110 LILLE FRANCE, 59350032,lat,lon,Name,Adresse, Nb de places BePark,
45.5077001,6.7047628,Indigo - Belleplagne Aval,.  73210 LA PLAGNE FRANCE, 73150005,lat,lon,Name,Adresse, Nb de places BePark,
45.5064590,6.7069050,Indigo - Belle-Plagne Amont,PARC AMONT  BELLE PLAGNE  73210      LA PLAGNE FRANCE, 73150006,lat,lon,Name,Adresse, Nb de places BePark,
49.5622635,3.6111001,Indigo - Parc Visiteurs,33 RUE MARCELIN BERTHELOT  02 LAON FRANCE, 02408001,lat,lon,Name,Adresse, Nb de places BePark,
43.2031577,5.7801802,Indigo - La Ferrage et Le cros du Loup,LE CROS DU LOUP  83330 LE CASTELLET FRANCE, 83035002,lat,lon,Name,Adresse, Nb de places BePark,
48.8312348,2.1260972,Indigo - Hôpital André Mignot,177, RUE DE VERSAILLES  78150 LE CHESNAY FRANCE, 78158001,lat,lon,Name,Adresse, Nb de places BePark,
48.8425519,2.5037758,Indigo - Georges Clemenceau,76, AVENUE GEORGES CLEMENCEAU  94170 LE PERREUX-SUR-MARNE FRANCE, 94058006,lat,lon,Name,Adresse, Nb de places BePark,
48.8413815,2.5052875,Indigo - 2 Avenues,117, AVENUE DU GÉNÉRAL DE GAULLE  94170 LE PERREUX-SUR-MARNE FRANCE, 94058007,lat,lon,Name,Adresse, Nb de places BePark,
48.8529403,2.5028144,Indigo - Galliéni,RUE GALLIÉNI  94170 LE PERREUX-SUR-MARNE FRANCE, 94058008,lat,lon,Name,Adresse, Nb de places BePark,
48.8413860,2.5040380,Indigo - Hôtel de Ville,PLACE DE LA LIBÉRATION LE PERREUX, 94058009,lat,lon,Name,Adresse, Nb de places BePark,
48.8523306,2.5061222,Indigo - Marché,RUE DU MARCHÉ  94170 LE PERREUX-SUR-MARNE FRANCE, 94058011,lat,lon,Name,Adresse, Nb de places BePark,
48.8508717,2.4985731,Indigo - l'Orangerie,8 RUE DE L'ORANGERIE  94170 LE PERREUX-SUR-MARNE FRANCE, 94058012,lat,lon,Name,Adresse, Nb de places BePark,
46.4993601,-1.7827165,Indigo - Centre Ville - Gare,2 RUE DE L'AMIRAL VAUGIRAUD  85100 LES SABLES-D'OLONNE  FRANCE, 85194001,lat,lon,Name,Adresse, Nb de places BePark,
46.4974465,-1.7924753,Indigo - Hôtel de Ville,7 RUE DU MARÉCHAL GÉNÉRAL LECLERC  85100 LES SABLES-D'OLONNE  FRANCE, 85194002,lat,lon,Name,Adresse, Nb de places BePark,
46.4954274,-1.7857172,Indigo - Halles,57 RUE DU PALAIS  85100 LES SABLES-D'OLONNE  FRANCE, 85194003,lat,lon,Name,Adresse, Nb de places BePark,
46.4951710,-1.7925130,Indigo - Atlantes,18 BOULEVARD FRANKLIN ROOSEVELT  85100 LES SABLES-D'OLONNE  FRANCE, 85194004,lat,lon,Name,Adresse, Nb de places BePark,
46.4975786,-1.7819367,Indigo - Cours Dupont, 2 COURS DUPONT  85100 LES SABLES-D'OLONNE  FRANCE, 85194005,lat,lon,Name,Adresse, Nb de places BePark,
46.4981209,-1.7790199,Indigo - Place Louis XI,26 COURS DUPONT  85100 LES SABLES-D'OLONNE  FRANCE, 85194006,lat,lon,Name,Adresse, Nb de places BePark,
46.4974075,-1.7863926,Indigo - Port de pêche,6-7 QUAI ERNEST DE FRANQUEVILLE  85100 LES SABLES-D'OLONNE  FRANCE, 85194007,lat,lon,Name,Adresse, Nb de places BePark,
48.6292127,2.5615652,Indigo - Lieusaint,AVENUE RENÉ CASSIN  77127 LIEUSAINT FRANCE, 77251003,lat,lon,Name,Adresse, Nb de places BePark,
50.6371379,3.0634744,Indigo - Grand Place,33 PLACE DU GÉNÉRAL DE GAULLE  59000 LILLE FRANCE, 59350001,lat,lon,Name,Adresse, Nb de places BePark,
50.6411772,3.0643784,Indigo - Vieux Lille,5 AVENUE DU PEUPLE BELGE  59800 LILLE FRANCE, 59350002,lat,lon,Name,Adresse, Nb de places BePark,
50.6343220,3.0672018,Indigo - Les Tanneurs,70 RUE DU MOLINEL  59000 LILLE FRANCE, 59350011,lat,lon,Name,Adresse, Nb de places BePark,
50.6350521,3.0583335,Indigo - LILLE Plaza,89 RUE NATIONALE  59000 LILLE FRANCE, 59350022,lat,lon,Name,Adresse, Nb de places BePark,
50.6332639,3.0224836,Indigo - Euratechnologies,RUE DES TEMPLIERS  59000 LILLE FRANCE, 59350027,lat,lon,Name,Adresse, Nb de places BePark,
50.6343127,3.0651284,Indigo - Rues Piétonnes - Le 31,6 RUE DE LA RIVIERETTE 59000 LILLE, 59350028,lat,lon,Name,Adresse, Nb de places BePark,
50.6412417,3.0764693,Indigo - LILLE LES GEANTS - GARE C,9 RUE DU BALLON, LILLE, 59350033,lat,lon,Name,Adresse, Nb de places BePark,
50.6296981,3.0950796,Indigo - Lille Fives Carrefour Property,268 RUE PIERRE LEGRAND  59800 LILLE FRANCE, 59350030,lat,lon,Name,Adresse, Nb de places BePark,
50.6276002,3.0329854,Indigo - Lille Moselle Carrefour Property,41 BOULEVARD DE LA MOSELLE  59000 LILLE FRANCE, 59350031,lat,lon,Name,Adresse, Nb de places BePark,
50.6134243,3.0337291,Indigo - Centre Oscar Lambret,3 RUE FREDERIC COMBEMALE LILLE, 59350039,lat,lon,Name,Adresse, Nb de places BePark,
50.6134243,3.0337291,Indigo - Centre Oscar Lambret,3 RUE FRÉDÉRIC COMBEMALE LILLE, 59350039,lat,lon,Name,Adresse, Nb de places BePark,
50.6366944,3.0735096,Indigo - Euralille Centre Commercial,164 AV. WILLY BRANDT, 59777 LILLE  59777 LILLE FRANCE, 59350023,lat,lon,Name,Adresse, Nb de places BePark,
50.6326569,3.0780770,Indigo - Euralille Grand Palais/Zénith,1 BLVD DES CITÉS UNIES, 59000 LILLE  59000 LILLE FRANCE, 59350024,lat,lon,Name,Adresse, Nb de places BePark,
50.6381531,3.0773910,Indigo - Euralille Gare B (Tours),179 BLVD DE TURIN, 59000 LILLE  59000 LILLE FRANCE, 59350025,lat,lon,Name,Adresse, Nb de places BePark,
50.6394041,3.0762265,Indigo - Euralille Gare A (Europe),13 AV. LE CORBUSIER, 59000 LILLE  59000 LILLE FRANCE, 59350026,lat,lon,Name,Adresse, Nb de places BePark,
50.6326599,3.0191456,Indigo - Delwaulle Lille Lomme,19 AVENUE MARIE LOUISE DELWAULLE 59160, 593500040,lat,lon,Name,Adresse, Nb de places BePark,
49.1460531,0.2316843,Indigo - Centre Hospitalier,4 RUE ROGER AINI  14100 LISIEUX FRANCE, 14366001,lat,lon,Name,Adresse, Nb de places BePark,
43.6733014,4.1300549,Indigo - Canal,RUE TIVOLI.34400 LUNEL, 34145007,lat,lon,Name,Adresse, Nb de places BePark,
45.7583991,4.8324873,Indigo - Bellecour,PLACE BELLECOUR  69002 LYON FRANCE, 69123001,lat,lon,Name,Adresse, Nb de places BePark,
45.7850023,4.8537389,Indigo - Cité Internationale P1,64, BOULEVARD DU QUAI CHARLES DE GAULLE  69006 LYON FRANCE, 69123002,lat,lon,Name,Adresse, Nb de places BePark,
45.7408848,4.8188441,Indigo - Parking Confluence,112 COURS CHARLEMAGNE  69002 LYON FRANCE, 69123006,lat,lon,Name,Adresse, Nb de places BePark,
45.7885644,4.7883496,Indigo - Lyon Clinique Sauvegarde,AV. DAVID BEN GOURION 69009 LYON  69009 LYON FRANCE, 69123007,lat,lon,Name,Adresse, Nb de places BePark,
45.7689344,4.8368065,Indigo - Parking Opéra,21 PLACE TOLOZAN  69001 LYON FRANCE, 69123008,lat,lon,Name,Adresse, Nb de places BePark,
45.7876644,4.8113104,Indigo - Lyon Vaise,5 RUE DE LA NAVIGATION 69009, 690009,lat,lon,Name,Adresse, Nb de places BePark,
45.7630939,4.8598311,Indigo - Lyon Part-Dieu,199 RUE DE BONNEL 69003, 69123010,lat,lon,Name,Adresse, Nb de places BePark,
48.9457132,2.1438185,Indigo - Maisons-Laffitte Gare,PLACE DE LA LIBÉRATION MAISONS LAFFITTE, 7835807,lat,lon,Name,Adresse, Nb de places BePark,
48.9449255,2.1556587,Indigo - Parc des Graviers,5, RUE DE PARIS, 78600 MAISONS LAFFITE, 7835808,lat,lon,Name,Adresse, Nb de places BePark,
48.9395319,2.1396384,Indigo - Parc des Côtes,101, RUE DES CÔTES, 78600 MAISONS LAFFITTE, 7835809,lat,lon,Name,Adresse, Nb de places BePark,
48.8235447,2.2997628,Indigo - Parc Plateau de Vanves,47, BOULEVARD CHARLES DE GAULLE  92240 MALAKOFF FRANCE, 92046001,lat,lon,Name,Adresse, Nb de places BePark,
48.8217464,2.3017169,Indigo - Hôtel de Ville,40, RUE GABRIEL CRIÉ  92240 MALAKOFF FRANCE, 92046002,lat,lon,Name,Adresse, Nb de places BePark,
48.9992560,1.6758499,Indigo - Centre Hospitalier François Quesnay,2 BIS BOULEVARD SULLY  78200 MANTES-LA-JOLIE FRANCE, 78361007,lat,lon,Name,Adresse, Nb de places BePark,
48.9899322,1.7036135,Indigo - PSR Gare,PLACE DU 8 MAI 1945  78200 MANTES-LA-JOLIE FRANCE, 78361004,lat,lon,Name,Adresse, Nb de places BePark,
48.9901150,1.7145710,Indigo - Marché,PLACE SAINT-JACQUES  78200 MANTES-LA-JOLIE FRANCE, 78361002,lat,lon,Name,Adresse, Nb de places BePark,
48.9890160,1.7155198,Indigo - Coeur de Mantes,25 RUE GAMBETTA  78200 MANTES-LA-JOLIE FRANCE, 78361006,lat,lon,Name,Adresse, Nb de places BePark,
48.9875559,1.7136773,Indigo - Mantes-la-Jolie Brieussel,RUE DE LORRAINE, 78200 MANTES-LA-JOLIE, 78361008,lat,lon,Name,Adresse, Nb de places BePark,
48.9884777,1.7115640,Indigo - Normandie,PLACE HENRI DUNANT  78200 MANTES-LA-JOLIE FRANCE, 78361003,lat,lon,Name,Adresse, Nb de places BePark,
48.9919538,1.7120541,Indigo - Vieux Pilori,RUE D'ALSACE  78200 MANTES-LA-JOLIE FRANCE, 78361005,lat,lon,Name,Adresse, Nb de places BePark,
48.9875868,1.7049382,Indigo - Parc Relais Jaouen,JEAN JAOUEN  78711 MANTES-LA-VILLE FRANCE, 78362003,lat,lon,Name,Adresse, Nb de places BePark,
43.2805015,5.3881294,Indigo - Prado Perier,20, ALLÉE TURCAT-MÉRY  13008 MARSEILLE FRANCE, 13055001,lat,lon,Name,Adresse, Nb de places BePark,
43.3002807,5.3746317,Indigo - Sainte-Barbe,16, RUE SAINTE-BARBE  13001 MARSEILLE FRANCE, 13055004,lat,lon,Name,Adresse, Nb de places BePark,
43.2970209,5.3754708,Indigo - Bourse - Musée d'Histoire,1 RUE REINE ELISABETH  13001 MARSEILLE FRANCE, 13055005,lat,lon,Name,Adresse, Nb de places BePark,
43.2944572,5.3869440,Indigo - Jean Jaurès,PLACE JEAN JAURÈS  13000      MARSEILLE FRANCE, 13055006,lat,lon,Name,Adresse, Nb de places BePark,
43.2951142,5.3756777,Indigo - Charles de Gaulle,22, PLACE GÉNÉRAL DE GAULLE 13001 MARSEILLE, 13055007,lat,lon,Name,Adresse, Nb de places BePark,
43.2906050,5.3795141,Indigo - Préfecture,INDIGO PARK - PARKING PREFECTURE  13006 MARSEILLE FRANCE, 13055010,lat,lon,Name,Adresse, Nb de places BePark,
43.2906050,5.3795141,Indigo - Marseille Préfecture Police,PARKING PRÉFECTURE PLACE DE LA PRÉFECTURE 13006 MARSEILLE FRANCE, 13055011,lat,lon,Name,Adresse, Nb de places BePark,
43.2844164,5.3858648,Indigo - Castellane,14 BIS, AVENUE JULES CANTINI  13006 MARSEILLE FRANCE, 13055012,lat,lon,Name,Adresse, Nb de places BePark,
43.2551289,5.3763160,Indigo - Hippodrome Borely,AVENUE PIERRE MENDES FRANCE  13008 MARSEILLE FRANCE, 13055015,lat,lon,Name,Adresse, Nb de places BePark,
43.2924311,5.3673776,Indigo - Vieux Port  la Criée,38, QUAI DE RIVE-NEUVE  13007 MARSEILLE FRANCE, 13055017,lat,lon,Name,Adresse, Nb de places BePark,
43.2893089,5.3956135,Indigo - Hôpital de la Conception,145 BOULEVARD BAILLE  13005 MARSEILLE FRANCE, 13055018,lat,lon,Name,Adresse, Nb de places BePark,
43.2975881,5.3810513,Indigo - Vieux Port MUCEM,ESPLANADE J4 BOULEVARD DU LITTORAL 13000      MARSEILLE FRANCE, 13055028,lat,lon,Name,Adresse, Nb de places BePark,
43.2838621,5.3806357,Indigo - Paradis Mélizan,202 RUE  PARADIS  13006 MARSEILLE FRANCE, 13055029,lat,lon,Name,Adresse, Nb de places BePark,
43.3125460,5.3670485,Indigo - Quai d'Arenc,2 QUAI D'ARENC  13000 MARSEILLE FRANCE, 13055030,lat,lon,Name,Adresse, Nb de places BePark,
43.3067346,5.3641865,Indigo - Les Terrasses du Port,9 , QUAI DU LAZARET   13002 MARSEILLE FRANCE, 13055031,lat,lon,Name,Adresse, Nb de places BePark,
43.3151802,5.3701122,Indigo - Hôpital Européen,AVENUE ROGER SALENGRO  13003 MARSEILLE FRANCE, 13055032,lat,lon,Name,Adresse, Nb de places BePark,
43.2928585,5.3717320,Indigo - Estienne d'Orves,PLACE AUX HUILES  13001 MARSEILLE FRANCE, 13055035,lat,lon,Name,Adresse, Nb de places BePark,
43.3250155,5.3654815,Indigo - Les Fabriques,8 RUE ANDRÉ ALLAR 13015, 13055039,lat,lon,Name,Adresse, Nb de places BePark,
43.3007848,5.3705381,Indigo - République,RUE DE LA RÉPUBLIQUE  13002 MARSEILLE FRANCE, 13055026,lat,lon,Name,Adresse, Nb de places BePark,
43.3006819,5.3699959,Indigo - Phocéens,12, RUE JEAN-MARC CATHALA, 13055037,lat,lon,Name,Adresse, Nb de places BePark,
43.3105274,5.3682026,Indigo - Marseille Euromed,52, QUAI DE LAZARET 13002 MARSEILLE, 13055036,lat,lon,Name,Adresse, Nb de places BePark,
43.3805677,5.3646782,Indigo - TPS Medipark,34, BOULEVARD PIERRE DRAMARD 13015 MARSEILLE, 1300402,lat,lon,Name,Adresse, Nb de places BePark,
48.9542785,2.9085362,Indigo - Centre-ville - Grand Cerf,33, RUE DU TAN  77100 MEAUX FRANCE, 77284002,lat,lon,Name,Adresse, Nb de places BePark,
48.9556870,2.8872220,Indigo - Meaux Cité administrative,52, RUE ARISTIDE BRIAND  77100 MEAUX FRANCE, 77284003,lat,lon,Name,Adresse, Nb de places BePark,
48.9562196,2.8740417,Indigo - Meaux Gare,RUE DES TRINITAIRES  77100 MEAUX FRANCE, 77284004,lat,lon,Name,Adresse, Nb de places BePark,
48.9531985,2.8784054,Indigo - Meaux Luxembourg,RUE TRONCHET  77100 MEAUX FRANCE, 77284005,lat,lon,Name,Adresse, Nb de places BePark,
48.9582379,2.8775381,Indigo - Meaux Hôtel de Ville,PLACE JACQUES CHIRAC  77100 MEAUX FRANCE, 77284006,lat,lon,Name,Adresse, Nb de places BePark,
48.9619460,2.8798460,Indigo - Meaux Jean Rose 1,BOULEVARD JEAN ROSE,  77100 MEAUX FRANCE, 77284007,lat,lon,Name,Adresse, Nb de places BePark,
48.9619460,2.8798460,Indigo - Meaux Jean Rose 2,BOULEVARD JEAN ROSE,  77100 MEAUX FRANCE, 77284008,lat,lon,Name,Adresse, Nb de places BePark,
48.9585577,2.8760607,Indigo - Meaux Verdun,COURS DE VERDUN,  77100 MEAUX FRANCE, 77284009,lat,lon,Name,Adresse, Nb de places BePark,
48.9572450,2.8881300,Indigo - Meaux Sablonnière,RUE DE LA SABLONNIÈRE,  77100 MEAUX FRANCE, 77284010,lat,lon,Name,Adresse, Nb de places BePark,
48.5380130,2.6609479,Indigo - Gambetta,11, BOULEVARD GAMBETTA  77000 MELUN FRANCE, 77288002,lat,lon,Name,Adresse, Nb de places BePark,
48.5392344,2.6571695,Indigo - Victor Hugo,13, BOULEVARD VICTOR HUGO  77000 MELUN FRANCE, 77288003,lat,lon,Name,Adresse, Nb de places BePark,
48.5404430,2.6607381,Indigo - Lebarbier,2, PASSAGE LEBARBIER  77000 MELUN FRANCE, 77288004,lat,lon,Name,Adresse, Nb de places BePark,
48.5402654,2.6582112,Indigo - Porte de Paris,9, PLACE PORTE DE PARIS  77000 MELUN FRANCE, 77288005,lat,lon,Name,Adresse, Nb de places BePark,
48.5387289,2.6647628,Indigo - Marché Gaillardon,58, RUE GAILLARDON  77000 MELUN FRANCE, 77288007,lat,lon,Name,Adresse, Nb de places BePark,
48.5367394,2.6578258,Indigo - Place Praslin,5, PLACE PRASLIN  77000 MELUN FRANCE, 77288008,lat,lon,Name,Adresse, Nb de places BePark,
48.5264017,2.6556635,Indigo - PSR - Parc de la Gare,5, RUE DE L'INDUSTRIE  77000 MELUN FRANCE, 77288009,lat,lon,Name,Adresse, Nb de places BePark,
44.8296800,-0.7129039,Indigo - Aéroport Merignac,AÉROPORT DE BORDEAUX, RUE RENÉ CASSIN  33700 BORDEAUX FRANCE, 33063019,lat,lon,Name,Adresse, Nb de places BePark,
49.1141304,6.2095092,Indigo - Clinique Claude Bernard,97, RUE CLAUDE BERNARD  57000 METZ FRANCE, 57463004,lat,lon,Name,Adresse, Nb de places BePark,
49.1123029,6.1778211,Indigo - Saint-Thiébault,PLACE SAINT-THIÉBAULT  57000 METZ FRANCE, 57463005,lat,lon,Name,Adresse, Nb de places BePark,
49.1047032,6.1823684,Indigo - Centre Commercial MUSE,4 RUE JEAN LAURAIN    METZ FRANCE, 57463009,lat,lon,Name,Adresse, Nb de places BePark,
49.1059156,6.1815772,Indigo - Metz Rue des Messageries,RUE DES MESSAGERIES  57000 METZ FRANCE, 57463011,lat,lon,Name,Adresse, Nb de places BePark,
49.1178207,6.1797453,Indigo - Saint jacques,PLACE DES PARAIGES  57000 METZ FRANCE, 57463012,lat,lon,Name,Adresse, Nb de places BePark,
49.1201432,6.1743298,Indigo - Cathédrale,RUE D'ESTRÉES  57000 METZ FRANCE, 57463001,lat,lon,Name,Adresse, Nb de places BePark,
49.1135950,6.2125686,Indigo - Metz Claude Bernard,RUE CLAUDE BERNARD 57000 METZ, 57463008,lat,lon,Name,Adresse, Nb de places BePark,
49.1077084,6.1714992,Indigo - Metz Crédit Mutuel,17, RUE DU SABLON 57000 METZ, 570015,lat,lon,Name,Adresse, Nb de places BePark,
49.1103080,6.1766033,Indigo - Metz Gare,PLACE DU GÉNÉRAL DE GAULLE 57000 METZ, 570017,lat,lon,Name,Adresse, Nb de places BePark,
49.1152684,6.1799378,Indigo - Metz Coislin,7, RUE COISLIN 57000 METZ, 570018,lat,lon,Name,Adresse, Nb de places BePark,
49.1193074,6.1757236,Indigo - Maud'huy,PLACE DE MAUD'HUY 57000 METZ, 570019,lat,lon,Name,Adresse, Nb de places BePark,
49.1054976,6.1741463,Indigo - Metz Pompidou,RUE AUX ARÈNES, 570022,lat,lon,Name,Adresse, Nb de places BePark,
49.1156785,6.1682352,Indigo - Metz République,BOULEVARD POINCARÉ 57000 METZ, 570023,lat,lon,Name,Adresse, Nb de places BePark,
48.7880251,2.2288302,Indigo - Place Centrale,RUE BERNARD DELPUECH  92360 MEUDON-LA-FORÊT FRANCE, 92048001,lat,lon,Name,Adresse, Nb de places BePark,
47.9958732,2.7310227,Indigo - Hôtel de Ville,41, RUE GAMBETTA  45200 MONTARGIS FRANCE, 45208002,lat,lon,Name,Adresse, Nb de places BePark,
47.9940278,2.7337692,Indigo - Dorée,A CÔTÉ DE LA RUE DORÉE 5, ALLÉE GÉRARD BOUCHE 45200 MONTARGIS FRANCE, 45208003,lat,lon,Name,Adresse, Nb de places BePark,
49.1009521,6.1541470,Indigo - Nation,128, RUE DE PONT À MOUSSON 57950 MONTIGNY LES METZ, 570401,lat,lon,Name,Adresse, Nb de places BePark,
49.0996294,6.1548375,Indigo - Saint Joseph,2, RUE DU GÉNÉRAL POUGIN 57950 MONTIGNY LES METZ, 570402,lat,lon,Name,Adresse, Nb de places BePark,
48.9735707,2.3113785,Indigo - Montmorency Pierre Mendès-France,FRANCE MONTMORENCY PLACE PIERRE MENDÈS FRANCE, 9542802,lat,lon,Name,Adresse, Nb de places BePark,
43.6128620,3.8700001,Indigo - Peyrou Pitot,7 RUE DU CARRÉ DU ROI  34000 MONTPELLIER FRANCE, 34172003,lat,lon,Name,Adresse, Nb de places BePark,
43.6087733,3.8824263,Indigo - Triangle,CENTRE COMMERCIAL LE TRIANGLE ALLÉE JULES MILHAU 34000 MONTPELLIER FRANCE, 34172004,lat,lon,Name,Adresse, Nb de places BePark,
48.8617030,2.4427025,Indigo - Mairie de Montreuil,5 BIS RUE FRANKLIN 93100 MONTREUIL, 93048002,lat,lon,Name,Adresse, Nb de places BePark,
48.8542181,2.4171005,Indigo - Atlas Montreuil,2 RUE ARMAND CARREL 93100 MONTREUIL, 93048003,lat,lon,Name,Adresse, Nb de places BePark,
48.8552906,2.4336287,Indigo - Aragon Montreuil,18 RUE DOUY DELCUPE 93100 MONTREUIL, 93048004,lat,lon,Name,Adresse, Nb de places BePark,
48.8106476,2.3146072,Indigo - Messier,160 AVENUE DE LE RÉPUBLIQUE  92120 MONTROUGE FRANCE, 92049010,lat,lon,Name,Adresse, Nb de places BePark,
48.8150260,2.3173222,Indigo - Verdier République,96 AVENUE DE LA RÉPUBLIQUE  92120 MONTROUGE FRANCE, 92049011,lat,lon,Name,Adresse, Nb de places BePark,
48.8163235,2.3203535,Indigo - Victor Hugo - Marché,9 -11 RUE VICTOR HUGO  92120 MONTROUGE FRANCE, 92049012,lat,lon,Name,Adresse, Nb de places BePark,
48.8148986,2.3208254,Indigo - Henri Ginoux,93 AVENUE HENRI GINOUX  92120 MONTROUGE FRANCE, 92049013,lat,lon,Name,Adresse, Nb de places BePark,
48.8138601,2.3104423,Indigo - Maurice Arnoux,125 RUE MAURICE ARNOUX  92120 MONTROUGE FRANCE, 92049014,lat,lon,Name,Adresse, Nb de places BePark,
48.8162742,2.3252645,Indigo - Aristide Briand,74 AVENUE ARISTIDE BRIAND  92120 MONTROUGE FRANCE, 92049015,lat,lon,Name,Adresse, Nb de places BePark,
48.8180745,2.3213125,Indigo - Gabriel Péri,33 RUE GABRIEL PERI  92120 MONTROUGE FRANCE, 92049016,lat,lon,Name,Adresse, Nb de places BePark,
48.8166022,2.3186988,Indigo - République,63 AVENUE DE LA RÉPUBLIQUE  92120 MONTROUGE FRANCE, 92049017,lat,lon,Name,Adresse, Nb de places BePark,
48.8178866,2.3239164,Indigo - ZAC Nord,10 RUE GABRIEL PERI  92120 MONTROUGE FRANCE, 92049018,lat,lon,Name,Adresse, Nb de places BePark,
48.8150156,2.3184735,Indigo - 19 Verdier,19 AVENUE VERDIER  92120 MONTROUGE FRANCE, 92049019,lat,lon,Name,Adresse, Nb de places BePark,
48.8189080,2.3197910,Indigo - Emile Cresp,1 PLACE EMILE CRESP 92120 MONTROUGE FRANCE, 92049020,lat,lon,Name,Adresse, Nb de places BePark,
46.1791354,6.7088785,Indigo - La Cruzaz,1 PLACE DE L'EGLISE  74110 MORZINE FRANCE, 74191003,lat,lon,Name,Adresse, Nb de places BePark,
46.1791354,6.7088785,Indigo - La Cruzaz,1 PLACE DE L'EGLISE  74110 MORZINE FRANCE, 74191004,lat,lon,Name,Adresse, Nb de places BePark,
46.1791354,6.7088785,Indigo - La Cruzaz,1 PLACE DE L'EGLISE  74110 MORZINE FRANCE, 74191006,lat,lon,Name,Adresse, Nb de places BePark,
46.1791354,6.7088785,Indigo - La Cruzaz,1 PLACE DE L'EGLISE  74110 MORZINE FRANCE, 74191007,lat,lon,Name,Adresse, Nb de places BePark,
47.7467554,7.3447628,Indigo - Gare Bâle,28 BIS, RUE DE BÂLE  68100 MULHOUSE FRANCE, 68224005,lat,lon,Name,Adresse, Nb de places BePark,
47.7450812,7.3358259,Indigo - Les Halles - La Paix,2 RUE DE MITTELBACH  68100 MULHOUSE FRANCE, 68224006,lat,lon,Name,Adresse, Nb de places BePark,
47.7463170,7.3315460,Indigo - Flammarion,RUE CAMILLE FLAMMARION  68100 MULHOUSE FRANCE, 68224001,lat,lon,Name,Adresse, Nb de places BePark,
47.7484533,7.3360470,Indigo - Maréchaux,6 RUE DU COUVENT  68100 MULHOUSE FRANCE, 68224002,lat,lon,Name,Adresse, Nb de places BePark,
47.7493949,7.3419524,Indigo - Centre,3 RUE DE METZ  68100 MULHOUSE FRANCE, 68224003,lat,lon,Name,Adresse, Nb de places BePark,
47.7508006,7.3408092,Indigo - Porte Jeune,1 RUE D'ANVERS  68100 MULHOUSE FRANCE, 68224004,lat,lon,Name,Adresse, Nb de places BePark,
48.6930699,6.1787854,Indigo - Carnot,2 PLACE CARNOT  54000 NANCY FRANCE, 54395002,lat,lon,Name,Adresse, Nb de places BePark,
48.6956820,6.1748780,Indigo - Leopold,23 COURS LÉOPOLD  54000 NANCY FRANCE, 54395003,lat,lon,Name,Adresse, Nb de places BePark,
48.6885632,6.1829315,Indigo - Charles III,11 RUE DES QUATRE EGLISES   54000 NANCY FRANCE, 54395005,lat,lon,Name,Adresse, Nb de places BePark,
48.6893558,6.1843929,Indigo - Saint-Dizier Saint-Nicolas,RUE DU DOCTEUR SCHMITT  54000 NANCY FRANCE, 54395007,lat,lon,Name,Adresse, Nb de places BePark,
48.6876973,6.1794908,Indigo - Joffre Saint-Thiébaut,22, RUE DU GRAND RABBIN HAGUENAUER  54100 NANCY FRANCE, 54395009,lat,lon,Name,Adresse, Nb de places BePark,
48.6931448,6.1825616,Indigo - Stanislas,PLACE STANISLAS, CON°1  57035 NANCY FRANCE, 54395019,lat,lon,Name,Adresse, Nb de places BePark,
48.6876619,6.1769710,Indigo - République,22 BOULEVARD JOFFRE 54000 NANCY, 540021,lat,lon,Name,Adresse, Nb de places BePark,
48.6896120,6.1724320,Indigo - Saint-Léon,5 BIS, RUE SAINT-LÉON  54000 NANCY FRANCE, 54395014,lat,lon,Name,Adresse, Nb de places BePark,
48.6900224,6.1755023,Indigo - Gare Thiers,PLACE SIMONE WEILL, 54000 NANCY, 54395016,lat,lon,Name,Adresse, Nb de places BePark,
48.6860570,6.1739051,Indigo - Kennedy,RUE ANDRÉ SCHOCK 54000 NANCY, 540024,lat,lon,Name,Adresse, Nb de places BePark,
48.6941714,6.1965813,Indigo - 2 Rives,PROMENADE EMILE DU CHÂTELET 54000 NANCY, 540025,lat,lon,Name,Adresse, Nb de places BePark,
48.6871074,6.1818566,Indigo - Saint-Sébastien,4 RUE CYFFLÉ, NANCY, 54395020,lat,lon,Name,Adresse, Nb de places BePark,
48.6855880,6.1819116,Indigo - Grand Cœur,ZAC GRAND CŒUR 54000 NANCY, 540020,lat,lon,Name,Adresse, Nb de places BePark,
48.6728202,6.1683882,Indigo - Haussonville Blandan - ARTEM,CR DES PINS 54000 NANCY, 54395021,lat,lon,Name,Adresse, Nb de places BePark,
43.1817681,3.0022782,Indigo - Halles,1 COURS MIRABEAU  11100 NARBONNE FRANCE, 11262002,lat,lon,Name,Adresse, Nb de places BePark,
43.1820346,3.0047409,Indigo - Voirie & enclos,COURS MIRABEAU  11108 NARBONNE FRANCE, 11262009,lat,lon,Name,Adresse, Nb de places BePark,
48.8527238,2.5138761,Indigo - Bords de Marne,20 BOULEVARD GALLIÉNI  93360 NEUILLY-PLAISANCE FRANCE, 93049001,lat,lon,Name,Adresse, Nb de places BePark,
48.8553866,2.5117105,Indigo - Lamarque,28 RUE EDGAR QUINET  93360 NEUILLY-PLAISANCE FRANCE, 93049002,lat,lon,Name,Adresse, Nb de places BePark,
48.8819887,2.2788085,Indigo - Parmentier,43 AVENUE DU ROULE  92200 NEUILLY-SUR-SEINE FRANCE, 92051005,lat,lon,Name,Adresse, Nb de places BePark,
48.8836486,2.2650818,Indigo - Saint Jean Baptiste,136 AVENUE CHARLES DE GAULLE  92200 NEUILLY-SUR-SEINE FRANCE, 92051008,lat,lon,Name,Adresse, Nb de places BePark,
48.8771108,2.2513286,Indigo - Bagatelle,1 TER PLACE DE BAGATELLE  92200 NEUILLY-SUR-SEINE FRANCE, 92051011,lat,lon,Name,Adresse, Nb de places BePark,
48.8872668,2.2741643,Indigo - Inkermann,31 BOULEVARD D'INKERMANN   92200      NEUILLY-SUR-SEINE FRANCE, 92051012,lat,lon,Name,Adresse, Nb de places BePark,
48.8829120,2.2763740,Indigo - Sainte Anne,62-70 AVENUE DU ROULE  92200      NEUILLY-SUR-SEINE FRANCE, 92051013,lat,lon,Name,Adresse, Nb de places BePark,
48.8812117,2.2624202,Indigo - Dulud,101 RUE JACQUES DULUD   92200      NEUILLY-SUR-SEINE FRANCE, 92051014,lat,lon,Name,Adresse, Nb de places BePark,
48.8967060,2.2707104,Indigo - Ile de la Jatte,71 BOULEVARD GEORGES SEURAT  92200      NEUILLY-SUR-SEINE FRANCE, 92051015,lat,lon,Name,Adresse, Nb de places BePark,
48.8972988,2.2717265,Indigo - Ile de la Jatte 2,87 BOULEVARD GEORGES SEURAT  92200      NEUILLY-SUR-SEINE FRANCE, 92051016,lat,lon,Name,Adresse, Nb de places BePark,
48.8840574,2.2598435,Indigo - Madrid, 6 AVENUE DE MADRID 92200 NEUILLY-SUR-SEINE FRANCE, 92051017,lat,lon,Name,Adresse, Nb de places BePark,
48.8806416,2.2754159,Indigo - Marché,PLACE DU MARCHÉ  92200      NEUILLY-SUR-SEINE FRANCE, 92051018,lat,lon,Name,Adresse, Nb de places BePark,
48.8828578,2.2676315,Indigo - Charles de Gaulle,116 AVENUE CHARLES DE GAULLE  92200 NEUILLY-SUR-SEINE FRANCE, 92051021,lat,lon,Name,Adresse, Nb de places BePark,
46.9890146,3.1633680,Indigo - Saint-Arigle,3, RUE SAINT-ARIGLE  58000 NEVERS FRANCE, 58194002,lat,lon,Name,Adresse, Nb de places BePark,
46.9934340,3.1631780,Indigo - Saint-Pierre,RUE DE LA PRÉFECTURE 58000, 580005,lat,lon,Name,Adresse, Nb de places BePark,
43.7045339,7.2861729,Indigo - Barla,RUE AUGUSTE GAL  06300 NICE FRANCE, 060004,lat,lon,Name,Adresse, Nb de places BePark,
43.6997604,7.2645609,Indigo - Louvre,20, BOULEVARD VICTOR HUGO  06000 NICE FRANCE, 06088007,lat,lon,Name,Adresse, Nb de places BePark,
43.6891040,7.2411405,Indigo - Lenval,57, AVENUE DE LA CALIFORNIE  06200 NICE FRANCE, 06088008,lat,lon,Name,Adresse, Nb de places BePark,
43.7034859,7.2809238,Indigo - Risso,42 BOULEVARD RISSO  06300 NICE FRANCE, 06088012,lat,lon,Name,Adresse, Nb de places BePark,
43.6677675,7.2134923,Indigo - Arénas,455 PROMENADE DES ANGLAIS  06200 NICE FRANCE, 060013,lat,lon,Name,Adresse, Nb de places BePark,
43.6955340,7.2632450,Indigo - Palais Méditerranée,3 RUE DU CONGRÈS  06000 NICE FRANCE, 06088014,lat,lon,Name,Adresse, Nb de places BePark,
43.6911111,7.2436122,Indigo - Magnan,4 RUE DE LA CORDERIE  06000 NICE FRANCE, 06088015,lat,lon,Name,Adresse, Nb de places BePark,
43.6955241,7.2737577,Indigo - Saleya,36 COURS SALEYA  06300 NICE FRANCE, 060017,lat,lon,Name,Adresse, Nb de places BePark,
43.6976991,7.2706717,Indigo - Massena,16 AVENUE FÉLIX FAURE  06000 NICE FRANCE, 060018,lat,lon,Name,Adresse, Nb de places BePark,
43.7007063,7.2619985,Indigo - MOZART,11, AVENUE AUBER  06000 NICE FRANCE, 06088011,lat,lon,Name,Adresse, Nb de places BePark,
43.7010050,7.2688010,Indigo - Nice Etoile,36 BOULEVARD DUBOUCHAGE 06000 NICE, 06088004,lat,lon,Name,Adresse, Nb de places BePark,
43.8315777,4.3619129,Indigo - Arènes,RUE BRIÇONNET  30000 NÎMES FRANCE, 30189001,lat,lon,Name,Adresse, Nb de places BePark,
43.8365903,4.3507001,Indigo - Jardin de la Fontaine,PLACE JULES GUESDE  30900 NÎMES FRANCE, 30189003,lat,lon,Name,Adresse, Nb de places BePark,
43.8401867,4.3639903,Indigo - Porte Auguste,BOULEVARD SAINTENAC  30000 NÎMES FRANCE, 30189005,lat,lon,Name,Adresse, Nb de places BePark,
43.8384448,4.3536841,Indigo - Maison Carrée,RUE GASTON BOISSIER BD ALPHONSE DAUDET 30000 NÎMES FRANCE, 30189006,lat,lon,Name,Adresse, Nb de places BePark,
43.8449842,4.3902696,Indigo - CHU Carémeau,2 PLACE DU PROFESSEUR DEBRÉ  30000 NÎMES FRANCE, 30189010,lat,lon,Name,Adresse, Nb de places BePark,
48.8383459,2.4863291,Indigo - Centre,55 RUE DES HÉROS NOGENTAIS  94130 NOGENT SUR MARNE FRANCE, 94052004,lat,lon,Name,Adresse, Nb de places BePark,
48.8405143,2.4858180,Indigo - Marché,RUE THIERS  94130 NOGENT SUR MARNE FRANCE, 94052005,lat,lon,Name,Adresse, Nb de places BePark,
48.8359571,2.4716884,Indigo - Baltard,AVENUE GEORGES CLÉMENCEAU  94130 NOGENT SUR MARNE FRANCE, 94052006,lat,lon,Name,Adresse, Nb de places BePark,
48.8337727,2.4911127,Indigo - Marie Curie,RUE HOCHE  94130 NOGENT SUR MARNE FRANCE, 94052007,lat,lon,Name,Adresse, Nb de places BePark,
48.8333730,2.4904810,Indigo - Port,4 RUE HOCHE  94130 NOGENT SUR MARNE FRANCE, 94052008,lat,lon,Name,Adresse, Nb de places BePark,
48.8369993,2.4835265,Indigo - Arcades,GRANDE RUE  94130 NOGENT SUR MARNE FRANCE, 94052009,lat,lon,Name,Adresse, Nb de places BePark,
48.8385155,2.4932889,Indigo - SNCF,1 RUE JEAN MONNET  94130 NOGENT-SUR-MARNE FRANCE, 94052010,lat,lon,Name,Adresse, Nb de places BePark,
48.8398821,2.5465943,Indigo - Mont d'Est AFUL,CENTRE COMMERCIAL DES ARCADES  93160 NOISY-LE-GRAND FRANCE, 93051002,lat,lon,Name,Adresse, Nb de places BePark,
48.8487408,2.5541785,Indigo - Noisy-Centre,12 BIS, AVENUE EMILE COSSONNEAU  93160 NOISY-LE-GRAND FRANCE, 93051007,lat,lon,Name,Adresse, Nb de places BePark,
48.8434733,2.5722103,Indigo - Noisy-Champs,1 RUE DES HAUTS CHÂTEAUX   93160 NOISY-LE-GRAND FRANCE, 93051008,lat,lon,Name,Adresse, Nb de places BePark,
48.8421862,2.5436468,Indigo - Mont d'Est Parc Relais,8 BOULEVARD DU MONT D'EST  93160 NOISY-LE-GRAND FRANCE, 93051009,lat,lon,Name,Adresse, Nb de places BePark,
48.8488322,2.5582258,Indigo - Pavé Neuf,16, AVENUE DES PAVÉS NEUFS  93160 NOISY-LE-GRAND FRANCE, 93051003,lat,lon,Name,Adresse, Nb de places BePark,
47.9030766,1.9036368,Indigo - Le Martroi,2, RUE BANNIER  45000 ORLÉANS FRANCE, 45234001,lat,lon,Name,Adresse, Nb de places BePark,
48.6971610,2.1896170,Indigo - GHNE Personnel,91400 ORSAY, 910505,lat,lon,Name,Adresse, Nb de places BePark,
48.6971610,2.1896170,Indigo - GHNE Public,91400 ORSAY, 910506,lat,lon,Name,Adresse, Nb de places BePark,
46.2586787,5.6556327,Indigo - VOIRIE,RUE BICHAT  01100 OYONNAX FRANCE, 01283002,lat,lon,Name,Adresse, Nb de places BePark,
48.8302023,2.3255766,Indigo - Alésia,204, AVENUE DU MAINE ET FACE AU 203, AVENUE DU MAINE 75014 PARIS FRANCE, 75114004,lat,lon,Name,Adresse, Nb de places BePark,
48.8670144,2.3009768,Indigo - Alma George V,FACE AU 19, AVENUE GEORGE V  75008 PARIS FRANCE, 75108007,lat,lon,Name,Adresse, Nb de places BePark,
48.8852920,2.3066458,Indigo - Ampère,2 RUE AMPÈRE  75017 PARIS FRANCE, 75117019,lat,lon,Name,Adresse, Nb de places BePark,
48.8442184,2.3363590,Indigo - André Honnorat,9, RUE AUGUSTE COMTE 75006, 75106016,lat,lon,Name,Adresse, Nb de places BePark,
48.8329111,2.2769943,Indigo - Aquaboulevard,4-6 RUE LOUIS ARMAND  75015 PARIS FRANCE, 75115004,lat,lon,Name,Adresse, Nb de places BePark,
48.8492646,2.3682124,Indigo - Bastille,BD DE LA BASTILLE  75012 PARIS FRANCE, 75112011,lat,lon,Name,Adresse, Nb de places BePark,
48.8617446,2.3535879,Indigo - Beaubourg Horloge,31, RUE BEAUBOURG  75003 PARIS FRANCE, 75103004,lat,lon,Name,Adresse, Nb de places BePark,
48.8318290,2.3859280,Indigo - Bercy Cars,6, RUE DES PIROGUES DE BERCY  75012 PARIS FRANCE, 75112007,lat,lon,Name,Adresse, Nb de places BePark,
48.8314013,2.3882546,Indigo - Bercy Village,12, PLACE DES VINS DE FRANCE  75012 PARIS FRANCE, 75112006,lat,lon,Name,Adresse, Nb de places BePark,
48.8635758,2.3485639,Indigo - Berger,FACE AU 12 RUE DE TURBIGO  75001 PARIS FRANCE, 75101009,lat,lon,Name,Adresse, Nb de places BePark,
48.8322905,2.3773056,Indigo - Bibliothèque François Mitterrand,19 / 21  RUE EMILE DURKHEIM  75013 PARIS FRANCE, 75113011,lat,lon,Name,Adresse, Nb de places BePark,
48.8351046,2.3731771,Indigo - Bords de Seine - Freyssinet,21 RUE ABEL GANCE  75013 PARIS FRANCE, 75113010,lat,lon,Name,Adresse, Nb de places BePark,
48.8708029,2.3055732,Indigo - Champs Elysées,FACE AU 64, AVENUE DES CHAMPS ELYSÉES  75008 PARIS FRANCE, 75108006,lat,lon,Name,Adresse, Nb de places BePark,
48.8394959,2.3703675,Indigo - Cité de la Mode - Austerlitz,29 QUAI D'AUSTERLITZ  75013 PARIS FRANCE, 75113009,lat,lon,Name,Adresse, Nb de places BePark,
48.8387931,2.2765068,Indigo - Citroën Cevennes,37, RUE LEBLANC  75015 PARIS FRANCE, 75115003,lat,lon,Name,Adresse, Nb de places BePark,
48.8631853,2.3397417,Indigo - Croix des Petits Champs,14, RUE CROIX DES PETITS CHAMPS  75001 PARIS FRANCE, 75101004,lat,lon,Name,Adresse, Nb de places BePark,
48.8739429,2.3004222,Indigo - Etoile Friedland,FACE AU 31, AVENUE DE FRIEDLAND  75008 PARIS FRANCE, 75108008,lat,lon,Name,Adresse, Nb de places BePark,
48.8761154,2.2982332,Indigo - Etoile Wagram,22 BIS, AVENUE DE WAGRAM  75008 PARIS FRANCE, 75108015,lat,lon,Name,Adresse, Nb de places BePark,
48.8819284,2.3526172,Indigo - Euronord Lariboisière,RUE AMBROISE PARÉ  75010 PARIS FRANCE, 75110004,lat,lon,Name,Adresse, Nb de places BePark,
48.8637142,2.2866574,Indigo - Eylau,FACE AU 2, AVENUE D'EYLAU  75016 PARIS FRANCE, 75116003,lat,lon,Name,Adresse, Nb de places BePark,
48.8508492,2.3753960,Indigo - Faubourg Saint-Antoine,82 BIS, AVENUE LEDRU ROLLIN  75012 PARIS FRANCE, 75112002,lat,lon,Name,Adresse, Nb de places BePark,
48.8739219,2.2919616,Indigo - FOCH,8 AV. FOCH 75016 PARIS  75016 PARIS FRANCE, 75116013,lat,lon,Name,Adresse, Nb de places BePark,
48.8635758,2.3485639,Indigo - Forum,12 RUE DE TURBIGO  75001 PARIS FRANCE, 75101008,lat,lon,Name,Adresse, Nb de places BePark,
48.8776560,2.3525226,Indigo - Franz Liszt,31, RUE DES PETITS HÔTELS  75010 PARIS FRANCE, 75110003,lat,lon,Name,Adresse, Nb de places BePark,
48.8473824,2.2972178,Indigo - Frémicourt,15 RUE FRÉMICOURT  75015 PARIS FRANCE, 75115007,lat,lon,Name,Adresse, Nb de places BePark,
48.8697826,2.3111293,Indigo - Garage Rond-Point des Champs-Elysées,3 AVENUE MATIGON, 75108025,lat,lon,Name,Adresse, Nb de places BePark,
48.8539514,2.3317408,Indigo - Garage Saint-Germain des Prés,FACE 169-171, BOULEVARD SAINT-GERMAIN  75000 PARIS FRANCE, 75106013,lat,lon,Name,Adresse, Nb de places BePark,
48.8595852,2.3114255,Indigo - Garages Invalides,35-37, RUE FABERT  75007 PARIS FRANCE, 75107006,lat,lon,Name,Adresse, Nb de places BePark,
48.8436710,2.3728311,Indigo - Gare de Lyon,191, RUE DE BERCY  75012 PARIS FRANCE, 75112004,lat,lon,Name,Adresse, Nb de places BePark,
48.8718042,2.2994195,Indigo - George V,103, AVENUE DES CHAMPS ELYSÉES  75008 PARIS FRANCE, 75108024,lat,lon,Name,Adresse, Nb de places BePark,
48.8557586,2.3425426,Indigo - Harlay Pont Neuf,QUAI DES ORFÈVRES  75001 PARIS FRANCE, 75101003,lat,lon,Name,Adresse, Nb de places BePark,
48.8737375,2.3305311,Indigo - Haussmann Galeries Lafayette,48, BOULEVARD HAUSSMANN  75009 PARIS FRANCE, 75109001,lat,lon,Name,Adresse, Nb de places BePark,
48.8730587,2.3291363,Indigo - Haussmann Opéra,16, RUE DES MATHURINS  75009 PARIS FRANCE, 75109015,lat,lon,Name,Adresse, Nb de places BePark,
48.8742882,2.3294521,Indigo - Haussmann Printemps,98, RUE DE PROVENCE  75009 PARIS FRANCE, 75109002,lat,lon,Name,Adresse, Nb de places BePark,
48.8765966,2.3012107,Indigo - Hoche,FACE AU 18, AVENUE HOCHE  75008 PARIS FRANCE, 75108005,lat,lon,Name,Adresse, Nb de places BePark,
48.8593827,2.3150075,Indigo - Invalides,FACE AU 23, RUE DE CONSTANTINE  75007 PARIS FRANCE, 75107001,lat,lon,Name,Adresse, Nb de places BePark,
48.8294261,2.3552025,Indigo - Italie 2,30, AVENUE D'ITALIE  75013 PARIS FRANCE, 75113006,lat,lon,Name,Adresse, Nb de places BePark,
48.8544175,2.3048102,Indigo - Joffre Ecole Militaire,2, PLACE JOFFRE  75007 PARIS FRANCE, 75107002,lat,lon,Name,Adresse, Nb de places BePark,
48.8870722,2.3127033,Indigo - Jouffroy,10, RUE JOUFFROY D'ABBANS  75017 PARIS FRANCE, 75117005,lat,lon,Name,Adresse, Nb de places BePark,
48.8660368,2.2898244,Indigo - Kléber-Trocadéro,65, AVENUE KLÉBER 75016 PARIS, 751617,lat,lon,Name,Adresse, Nb de places BePark,
48.8984275,2.3776501,Indigo - Le Parks,157 BLVRD MACDONALD  75019 PARIS FRANCE, 75119009,lat,lon,Name,Adresse, Nb de places BePark,
48.8664182,2.2833208,Indigo - Les Belles Feuilles,16 RUE DES BELLES FEUILLES  75016 PARIS FRANCE, 75116010,lat,lon,Name,Adresse, Nb de places BePark,
48.8612840,2.3297000,Indigo - Louvre,1 AVENUE DU GÉNÉRAL LEMONNIER  75001 PARIS FRANCE, 75101010,lat,lon,Name,Adresse, Nb de places BePark,
48.8594897,2.3408190,Indigo - Louvre Samaritaine,1 PLACE DU LOUVRE 75001 PARIS  75001 PARIS FRANCE, 75101011,lat,lon,Name,Adresse, Nb de places BePark,
48.8552363,2.3458468,Indigo - Lutèce,BOULEVARD DU PALAIS  75004 PARIS FRANCE, 75104007,lat,lon,Name,Adresse, Nb de places BePark,
48.8763793,2.2943348,Indigo - Mac Mahon,17, AVENUE MAC MAHON  75017 PARIS FRANCE, 75117011,lat,lon,Name,Adresse, Nb de places BePark,
48.8758794,2.3549157,Indigo - Magenta - Gare de l'Est,2 SQUARE ALBAN SATRAGNE  75010 PARIS FRANCE, 75110009,lat,lon,Name,Adresse, Nb de places BePark,
48.8517750,2.3358474,Indigo - Marché Saint-Germain,14, RUE LOBINEAU  75006 PARIS FRANCE, 75106009,lat,lon,Name,Adresse, Nb de places BePark,
48.8672580,2.3318383,Indigo - Marché Saint-Honoré,39, PLACE DU MARCHÉ SAINT-HONORÉ  75001 PARIS FRANCE, 75101006,lat,lon,Name,Adresse, Nb de places BePark,
48.8211584,2.3657827,Indigo - Masséna 13,108, BOULEVARD MASSÉNA  75013 PARIS FRANCE, 75113008,lat,lon,Name,Adresse, Nb de places BePark,
48.8793585,2.2855045,Indigo - Meridien-Etoile,81, BLD GOUVION SAINT CYR  75017 PARIS FRANCE, 75117017,lat,lon,Name,Adresse, Nb de places BePark,
48.8773876,2.3463076,Indigo - Montholon,FACE AU 8, RUE ROCHAMBEAU  75009 PARIS FRANCE, 75109016,lat,lon,Name,Adresse, Nb de places BePark,
48.8443110,2.3276488,Indigo - Montparnasse Havas,21, RUE DU MONTPARNASSE  75006 PARIS FRANCE, 75106001,lat,lon,Name,Adresse, Nb de places BePark,
48.8414937,2.3306619,Indigo - Montparnasse Raspail,120 BIS, BOULEVARD DU MONTPARNASSE  75014 PARIS FRANCE, 75114003,lat,lon,Name,Adresse, Nb de places BePark,
48.8509046,2.3414076,Indigo - Odéon,21 RUE DE L'ÉCOLE DE MÉDECINE, 75106015,lat,lon,Name,Adresse, Nb de places BePark,
48.8924842,2.3085303,Indigo - PALAIS DE JUSTICE,52, BOULEVARD BERTHIER 75017 PARIS, 751723,lat,lon,Name,Adresse, Nb de places BePark,
48.8973319,2.3884717,Indigo - Parc de la Villette Nord - Cité des Sciences,61, BOULEVARD MAC DONALD 75019 PARIS FRANCE, 75119008,lat,lon,Name,Adresse, Nb de places BePark,
48.8440035,2.3726410,Indigo - Paris-Lyon,193 RUE DE BERCY, 751212,lat,lon,Name,Adresse, Nb de places BePark,
48.8752920,2.3275842,Indigo - Passage du Havre,109 RUE SAINT LAZARE  75009 PARIS FRANCE, 75109013,lat,lon,Name,Adresse, Nb de places BePark,
48.8582604,2.2761163,Indigo - Passy,78 - 80, RUE DE PASSY  75016 PARIS FRANCE, 75116011,lat,lon,Name,Adresse, Nb de places BePark,
48.8397272,2.3124853,Indigo - Pasteur-Montparnasse,81, RUE FALGUIÈRE  75015 PARIS FRANCE, 75115005,lat,lon,Name,Adresse, Nb de places BePark,
48.8404453,2.3507914,Indigo - Patriarches,4-6 PLACE BERNARD HALPEM 75005 PARIS  75005 PARIS FRANCE, 75105003,lat,lon,Name,Adresse, Nb de places BePark,
48.8467409,2.4003399,Indigo - Picpus Nation,FACE AU 96, BOULEVARD DE PICPUS  75012 PARIS FRANCE, 75112001,lat,lon,Name,Adresse, Nb de places BePark,
48.8701396,2.3040972,Indigo - Pierre Charron Champs-Elysées,FACE AU 65, RUE PIERRE CHARRON  75008 PARIS FRANCE, 75108019,lat,lon,Name,Adresse, Nb de places BePark,
48.8785742,2.3328617,Indigo - Pigalle Théâtres Trinité,12 RUE JEAN BAPTISTE PIGALLE 75009, 7509172,lat,lon,Name,Adresse, Nb de places BePark,
48.8668785,2.3204060,Indigo - Place de la Concorde,3608 PLACE DE LA CONCORDE  75008 PARIS FRANCE, 75108021,lat,lon,Name,Adresse, Nb de places BePark,
48.8527915,2.3433069,Indigo - Place Saint-Michel,25 RUE FRANCISQUE GAY  75005 PARIS FRANCE, 75105002,lat,lon,Name,Adresse, Nb de places BePark,
48.8688983,2.2829914,Indigo - Place Victor Hugo,FACE AU 100, AVENUE VICTOR HUGO  75016 PARIS FRANCE, 75116004,lat,lon,Name,Adresse, Nb de places BePark,
48.8544176,2.3570205,Indigo - Pont Marie,48, RUE DE L'HÔTEL DE VILLE  75004 PARIS FRANCE, 75104004,lat,lon,Name,Adresse, Nb de places BePark,
48.8901548,2.3033764,Indigo - Porte d'Asnières,FACE AU 1, AVENUE DE LA PORTE D'ASNIÈRES  75017 PARIS FRANCE, 75117006,lat,lon,Name,Adresse, Nb de places BePark,
48.8189043,2.3599147,Indigo - Porte d'Italie,18/20 PORTE D'ITALIE  75013 PARIS FRANCE, 75113014,lat,lon,Name,Adresse, Nb de places BePark,
48.8853144,2.2889296,Indigo - Porte de Champerret,10, BLD DE L'YSER  75017 PARIS FRANCE, 75117016,lat,lon,Name,Adresse, Nb de places BePark,
48.8395547,2.2533834,Indigo - Porte de Saint-Cloud,2 AV. DE LA PORTE DE SAINT CLOUD 75016 PARIS  75016 PARIS FRANCE, 75116014,lat,lon,Name,Adresse, Nb de places BePark,
48.8779560,2.4108997,Indigo - Porte des Lilas,55, RUE DES FRÈRES FLAVIEN 75020 PARIS, 752002,lat,lon,Name,Adresse, Nb de places BePark,
48.8778423,2.2830515,Indigo - Porte Maillot,2 PLACE DE LA PORTE MAILLOT  75017 PARIS FRANCE, 75117022,lat,lon,Name,Adresse, Nb de places BePark,
48.8534488,2.2780981,Indigo - Radio France,17, RUE DU RANELAGH  75016 PARIS FRANCE, 75116012,lat,lon,Name,Adresse, Nb de places BePark,
48.8669867,2.3496572,Indigo - Réaumur Saint-Denis,40, RUE DUSSOUBS  75002 PARIS FRANCE, 75102001,lat,lon,Name,Adresse, Nb de places BePark,
48.8672938,2.3484949,Indigo - Réaumur Sentier,100 RUE RÉAUMUR 75002 PARIS, 75102004,lat,lon,Name,Adresse, Nb de places BePark,
48.8450969,2.3254746,Indigo - Rennes Montparnasse,155 BIS RUE DE RENNES  75006 PARIS FRANCE, 75106012,lat,lon,Name,Adresse, Nb de places BePark,
48.8697826,2.3111293,Indigo - Rond Point des Champs Elysées,FACE AU 3, AVENUE MATIGNON  75008 PARIS FRANCE, 75108004,lat,lon,Name,Adresse, Nb de places BePark,
48.8455338,2.2712751,Indigo - Rossini,15, RUE WILHEM  75016 PARIS FRANCE, 75116005,lat,lon,Name,Adresse, Nb de places BePark,
48.8541655,2.3309250,Indigo - Saint-Germain des Prés,FACE AU 171, BOULEVARD SAINT-GERMAIN  75006 PARIS FRANCE, 75106008,lat,lon,Name,Adresse, Nb de places BePark,
48.8657976,2.3538131,Indigo - Saint-Martin,FACE AU 254 RUE SAINT-MARTIN  75003 PARIS FRANCE, 75103001,lat,lon,Name,Adresse, Nb de places BePark,
48.8562112,2.3323521,Indigo - Saints-Pères,FACE AU 54, RUE JACOB  75006 PARIS FRANCE, 75106003,lat,lon,Name,Adresse, Nb de places BePark,
48.8615302,2.3496369,Indigo - Sébastopol,43 BIS, BOULEVARD DE SÉBASTOPOL  75001 PARIS FRANCE, 75101005,lat,lon,Name,Adresse, Nb de places BePark,
48.8516016,2.3248439,Indigo - Sèvres Babylone,RUE VELPEAU  75007 PARIS FRANCE, 75107011,lat,lon,Name,Adresse, Nb de places BePark,
48.8473027,2.3418089,Indigo - Soufflot-Panthéon,22, RUE SOUFFLOT  75005 PARIS FRANCE, 75105001,lat,lon,Name,Adresse, Nb de places BePark,
48.8579697,2.3000211,Indigo - Suffren,SOUS LE CHAMP DE MARS CÔTÉ SUFFREN 75007 PARIS FRANCE, 75107004,lat,lon,Name,Adresse, Nb de places BePark,
48.8790310,2.2933240,Indigo - TERNES,38 AV. DES TERNES 75017 PARIS  75017 PARIS FRANCE, 75117021,lat,lon,Name,Adresse, Nb de places BePark,
48.8648225,2.3500396,Indigo - Turbigo Saint-Denis,149, RUE SAINT-DENIS  75002 PARIS FRANCE, 75102002,lat,lon,Name,Adresse, Nb de places BePark,
48.8293143,2.3787114,Indigo - Université Diderot,31, RUE THOMAS MANN  75013 PARIS FRANCE, 75113012,lat,lon,Name,Adresse, Nb de places BePark,
48.8445485,2.3714588,Indigo - Van Gogh,205, RUE DE BERCY, 75112012,lat,lon,Name,Adresse, Nb de places BePark,
48.8681582,2.3303228,Indigo - Vendôme,28 PLACE VENDÔME  75001 PARIS FRANCE, 75101007,lat,lon,Name,Adresse, Nb de places BePark,
48.8395110,2.2616586,Indigo - Versailles Reynaud,FACE AU 188, AVENUE DE VERSAILLES ANGLE RUE CHARDON LAGACHE  75016 PARIS FRANCE, 75116009,lat,lon,Name,Adresse, Nb de places BePark,
48.8679153,2.2807245,Indigo - Victor Hugo Pompe,120, AVENUE VICTOR HUGO  75016 PARIS FRANCE, 75116001,lat,lon,Name,Adresse, Nb de places BePark,
48.8819687,2.3142468,Indigo - Villiers,14 AVENUE DE VILLIERS  75017 PARIS FRANCE, 75117018,lat,lon,Name,Adresse, Nb de places BePark,
48.8314546,2.3593167,Indigo - Vincent Auriol,181, BOULEVARD VINCENT AURIOL  75013 PARIS FRANCE, 75113004,lat,lon,Name,Adresse, Nb de places BePark,
48.8282506,2.3829366,Indigo - ZAC Rive Gauche - Watt,7 RUE WATT  75013 PARIS FRANCE, 75113013,lat,lon,Name,Adresse, Nb de places BePark,
45.1828526,0.7190523,Indigo - Francheville,26 PLACE FRANCHEVILLE  24000 PÉRIGUEUX FRANCE, 24322002,lat,lon,Name,Adresse, Nb de places BePark,
45.1854857,0.7204432,Indigo - Montaigne,18 COURS MICHEL MONTAIGNE  24000 PÉRIGUEUX FRANCE, 24322003,lat,lon,Name,Adresse, Nb de places BePark,
45.1839254,0.7174605,Indigo - Théâtre,10 RUE DU PRÉSIDENT WILSON  24000 PÉRIGUEUX FRANCE, 24322004,lat,lon,Name,Adresse, Nb de places BePark,
45.1841752,0.7191416,Indigo - Bugeaud,20 PLACE BUGEAUD  24000 PÉRIGUEUX FRANCE, 24322005,lat,lon,Name,Adresse, Nb de places BePark,
45.1861846,0.7224228,Indigo - Tourny,16 COURS TOURNY  24000 PÉRIGUEUX FRANCE, 24322006,lat,lon,Name,Adresse, Nb de places BePark,
42.6986159,2.8876582,Indigo - Catalogne,PLACE DE CATALOGNE  66000 PERPIGNAN FRANCE, 66136006,lat,lon,Name,Adresse, Nb de places BePark,
48.9273111,2.0437105,Indigo - Hôtel de Ville (République),FACE AU 17 PLACE DE LA RÉPUBLIQUE  78300 POISSY FRANCE, 78498001,lat,lon,Name,Adresse, Nb de places BePark,
48.9373291,2.0533903,Indigo - Parc Relais Poissy,PARC DE LA GARE  78300 POISSY FRANCE, 78498006,lat,lon,Name,Adresse, Nb de places BePark,
48.9323414,2.0417712,Indigo - Lys,23 RUE JEAN CLAUDE MARY  78300 POISSY FRANCE, 78498005,lat,lon,Name,Adresse, Nb de places BePark,
48.8822628,2.7024369,Indigo - Chabanneaux,AVENUE CHABANNEAUX, 771304,lat,lon,Name,Adresse, Nb de places BePark,
48.9057100,6.0511914,Indigo - CH Pont à Mousson,PLACE JULES COLOMBÉ  54700 PONT À MOUSSON FRANCE, 54431001,lat,lon,Name,Adresse, Nb de places BePark,
49.0509660,2.1006450,Indigo - Jean Jaurès,PONTOISE, 950003,lat,lon,Name,Adresse, Nb de places BePark,
49.0519081,2.0975414,Indigo - Jean Jaurès,34, BOULEVARD JEAN JAURÈS PONTOISE, 950003,lat,lon,Name,Adresse, Nb de places BePark,
49.0469902,2.0916806,Indigo - Vinet,5 RUE DES VINETS, 95300, PONTOISE, 950004,lat,lon,Name,Adresse, Nb de places BePark,
48.6270491,2.5937577,Indigo - Jean Luc Maire,7 PLACE DU SOUVENIR 95300 PONTOISE, 950005,lat,lon,Name,Adresse, Nb de places BePark,
48.8938729,2.2404910,Indigo - CNIT La Défense,19 AVENUE DE LA DIVISION LECLERC 92800 PUTEAUX, 92062020,lat,lon,Name,Adresse, Nb de places BePark,
48.6438680,1.8290790,Indigo - Séquoia,PARC SÉQUOIA PLACE FERDINAND PRUD'HOMME 78120 RAMBOUILLET FRANCE, 78517005,lat,lon,Name,Adresse, Nb de places BePark,
48.6456937,1.8206470,Indigo - Hôtel de Ville,PARC HÔTEL DE VILLE 7 RUE DE PENTHIÈVRE 78120 RAMBOUILLET FRANCE, 78517007,lat,lon,Name,Adresse, Nb de places BePark,
48.6442075,1.8253127,Indigo - Vignes,PARC LES VIGNES 48 BIS, RUE D'ANGIVILLERS 78120 RAMBOUILLET FRANCE, 78517006,lat,lon,Name,Adresse, Nb de places BePark,
48.6464279,1.8224078,Indigo - Mediathèque,RUE GAUTHERIN 78120 RAMBOUILLET, 780513,lat,lon,Name,Adresse, Nb de places BePark,
48.6444420,1.8338986,Indigo - Prairie,RUE DE LA PRAIRIE  78120 RAMBOUILLET FRANCE, 78517008,lat,lon,Name,Adresse, Nb de places BePark,
49.2583290,4.0316960,Indigo - Reims Parcs en enclos,REIMS, 51454002,lat,lon,Name,Adresse, Nb de places BePark,
47.1951120,-1.5479840,Indigo - Confluent,5 RUE ERIC TABARLY 44400 REZÉ, 44143005,lat,lon,Name,Adresse, Nb de places BePark,
47.1951120,-1.5479840,Indigo - Portes 1 à 4 et Urgences,5 RUE ERIC TABARLY  44400 REZÉ FRANCE, 44143007,lat,lon,Name,Adresse, Nb de places BePark,
48.9912687,2.5219629,Indigo - CC Aéroville,30 RUE DES BUISSONS  95718 TREMBLAY EN FRANCE FRANCE, 95527001,lat,lon,Name,Adresse, Nb de places BePark,
48.8715863,2.4835806,Indigo - Centre Ville,RUE DU MARÉCHAL MAUNOURY 93110 ROSNY-SOUS-BOIS, 93064003,lat,lon,Name,Adresse, Nb de places BePark,
49.4421189,1.0886426,Indigo - La Pucelle,PLACE DE LA PUCELLE  76000 ROUEN FRANCE, 76540003,lat,lon,Name,Adresse, Nb de places BePark,
49.4463443,1.0709567,Indigo - Brico Dépôt,AVENUE DU MONT RIBOUDET  76000 ROUEN FRANCE, 76540015,lat,lon,Name,Adresse, Nb de places BePark,
48.8777314,2.1798317,Indigo - Médiathèque,17, BOULEVARD DU MARÉCHAL FOCH  92500 RUEIL-MALMAISON FRANCE, 92063002,lat,lon,Name,Adresse, Nb de places BePark,
48.8755578,2.1808389,Indigo - Arcades,14, RUE DU CHÂTEAU  92500 RUEIL-MALMAISON FRANCE, 92063003,lat,lon,Name,Adresse, Nb de places BePark,
48.8912210,2.1682820,Indigo - Claude Monet,27, RUE GUY DE MAUPASSANT  92500 RUEIL-MALMAISON FRANCE, 92063004,lat,lon,Name,Adresse, Nb de places BePark,
48.8886974,2.1713834,Indigo - 2 Gares,7, RUE AMÉDÉE BOLLÉE  92500 RUEIL-MALMAISON FRANCE, 92063005,lat,lon,Name,Adresse, Nb de places BePark,
48.8725056,2.1961928,Indigo - Vignerons,RUE DES BONS RAISINS  92500 RUEIL-MALMAISON FRANCE, 92063006,lat,lon,Name,Adresse, Nb de places BePark,
48.8797574,2.1757894,Indigo - République,15, AVENUE DE LA RÉPUBLIQUE  92500 RUEIL-MALMAISON FRANCE, 92063007,lat,lon,Name,Adresse, Nb de places BePark,
48.8797051,2.1851580,Indigo - Théâtre André Malraux,3 BOULEVARD DU GUÉ AVENUE PAUL DOUMER 92500 RUEIL-MALMAISON FRANCE, 92063008,lat,lon,Name,Adresse, Nb de places BePark,
48.8781477,2.1811627,Indigo - Hôtel de Ville,13, BOULEVARD DU MARÉCHAL FOCH  92500 RUEIL-MALMAISON FRANCE, 92063009,lat,lon,Name,Adresse, Nb de places BePark,
48.8735613,2.1807404,Indigo - Masséna,6 RUE MASSÉNA  92500 RUEIL-MALMAISON FRANCE, 92063010,lat,lon,Name,Adresse, Nb de places BePark,
48.8740471,2.1781832,Indigo - Bois Préau,5, RUE CHARLES FLOQUET  92500 RUEIL-MALMAISON FRANCE, 92063011,lat,lon,Name,Adresse, Nb de places BePark,
48.8782665,2.1774938,Indigo - Jean Jaurès,133 AVENUE PAUL DOUMER  92500 RUEIL-MALMAISON FRANCE, 92063013,lat,lon,Name,Adresse, Nb de places BePark,
48.8854547,2.1765463,Indigo - Rueil Mobipole,AVENUE VICTOR HUGO  92500 RUEIL-MALMAISON FRANCE, 92063014,lat,lon,Name,Adresse, Nb de places BePark,
48.8914976,2.1695903,Indigo - Michel Ricard,8 RUE GUY DE MAUPASSANT  92500 RUEIL-MALMAISON FRANCE, 92063015,lat,lon,Name,Adresse, Nb de places BePark,
48.8733717,2.1967179,Indigo - Arsenal Lot L,AVENUE EUGÈNE SACCOMANO  92500 RUEIL-MALMAISON FRANCE, 92063021,lat,lon,Name,Adresse, Nb de places BePark,
48.8728192,2.1994013,Indigo - Arsenal,9 RUE CHARLES GRÉGOIRE 92500 RUEIL-MALMAISON, 92063025,lat,lon,Name,Adresse, Nb de places BePark,
48.8416506,2.2219136,Indigo - Colline,PLACE GEORGES CLÉMENCEAU  92210 SAINT-CLOUD FRANCE, 92064002,lat,lon,Name,Adresse, Nb de places BePark,
48.8422709,2.2210014,Indigo - Saint-Cloud Hôtel de Ville,5, RUE DAILY  92210 SAINT-CLOUD FRANCE, 92064004,lat,lon,Name,Adresse, Nb de places BePark,
48.8531332,2.2141148,Indigo - Marie Bonaparte,RUE MARIE BONAPARTE 92210 SAINT-CLOUD, 920640015,lat,lon,Name,Adresse, Nb de places BePark,
48.8493474,2.2105431,Indigo - Saint-Cloud Huet,19, RUE BUZENVAL SAINT CLOUD, 920640016,lat,lon,Name,Adresse, Nb de places BePark,
48.8443060,2.2096770,Indigo - Saint-Cloud Avelines,40 BOULEVARD DE LA RÉPUBLIQUE 92210 SAINT-CLOUD FRANCE, 920640017,lat,lon,Name,Adresse, Nb de places BePark,
48.8428773,2.2196011,Indigo - Saint-Cloud Desfossez,RUE DU DOCTEUR DESFOSSEZ, 920640018,lat,lon,Name,Adresse, Nb de places BePark,
48.8479619,2.2204592,Indigo - Saint-Cloud Hôpitaux,AVENUE ANDRÉ CHEVRILLON, 920640019,lat,lon,Name,Adresse, Nb de places BePark,
48.8464388,2.2233390,Indigo - Saint-Cloud Carnot,QUAI CARNOT  92210 SAINT-CLOUD FRANCE, 92064011,lat,lon,Name,Adresse, Nb de places BePark,
48.8407965,2.2190758,Indigo - Orléans,RUE D'ORLÉANS  92210 SAINT-CLOUD FRANCE, 92064012,lat,lon,Name,Adresse, Nb de places BePark,
48.9375238,2.3532128,Indigo - République,6, RUE DES CHAUMETTES  93200 SAINT-DENIS FRANCE, 93066002,lat,lon,Name,Adresse, Nb de places BePark,
48.9355832,2.3477965,Indigo - Marcel Sembat,94, BOULEVARD MARCEL SEMBAT  93200 SAINT-DENIS FRANCE, 93066004,lat,lon,Name,Adresse, Nb de places BePark,
48.9394380,2.3559260,Indigo - 8 mai 1945,PLACE DU 8 MAI 1945  93200 SAINT-DENIS FRANCE, 93066005,lat,lon,Name,Adresse, Nb de places BePark,
48.9374292,2.3600051,Indigo - Basilique,4, PLACE DU CAQUET  93200 SAINT-DENIS FRANCE, 93066010,lat,lon,Name,Adresse, Nb de places BePark,
48.9231576,2.3703447,Indigo - Porte de Paris,RUE DANIELLE CASANOVA  93200 SAINT-DENIS FRANCE, 93066013,lat,lon,Name,Adresse, Nb de places BePark,
48.9477139,2.3656279,Indigo - Saint-Denis Université,RUE TOUSSAINT LOUVERTURE  93200 SAINT-DENIS FRANCE, 93066015,lat,lon,Name,Adresse, Nb de places BePark,
45.4353054,4.3875712,Indigo - Clapier / Ursules (St Etienne), Gare / Liberté (Saint-Chamond),PLACE DES URSULES  42000 SAINT-ETIENNE FRANCE, 42218016,lat,lon,Name,Adresse, Nb de places BePark,
48.8963127,2.0936328,Indigo - Les Coches,11,15, RUE DES COCHES  78100 SAINT-GERMAIN-EN-LAYE FRANCE, 78551002,lat,lon,Name,Adresse, Nb de places BePark,
48.8979139,2.0881790,Indigo - Pologne,63, RUE DE POLOGNE  78100 SAINT-GERMAIN-EN-LAYE FRANCE, 78551011,lat,lon,Name,Adresse, Nb de places BePark,
48.8929546,2.0796613,Indigo - Pompidou,PLACE GEORGES POMPIDOU  78100 SAINT-GERMAIN-EN-LAYE FRANCE, 78551012,lat,lon,Name,Adresse, Nb de places BePark,
48.8970735,2.0950885,Indigo - Centre Château, 22 PLACE CHARLES DE GAULLE 78100 SAINT-GERMAIN-EN-LAYE, 78551013,lat,lon,Name,Adresse, Nb de places BePark,
48.9028352,2.0718041,Indigo - Lisière Pereire Parc Relais,2 RUE TURGOT  78100 SAINT-GERMAIN EN LAYE FRANCE, 78551016,lat,lon,Name,Adresse, Nb de places BePark,
48.8976318,2.0854323,Indigo - Centre hospitalier intercommunal de Poissy-St-Germain,20, RUE ARMAGIS  78100 SAINT-GERMAIN-EN-LAYE FRANCE, 78551006,lat,lon,Name,Adresse, Nb de places BePark,
43.3918540,-1.6605218,Indigo - Grande Plage,8 RUE VINCENT BARJONNET  64500 SAINT-JEAN-DE-LUZ FRANCE, 64260005,lat,lon,Name,Adresse, Nb de places BePark,
43.3882657,-1.6604017,Indigo - Halles,31 BOULEVARD VICTOR HUGO  64500 SAINT-JEAN-DE-LUZ FRANCE, 64483006,lat,lon,Name,Adresse, Nb de places BePark,
43.3861232,-1.6610875,Indigo - Port,2 AVENUE DE VERDUN 64500 SAINT-JEAN-DE-LUZ, 640207,lat,lon,Name,Adresse, Nb de places BePark,
43.6596876,7.1952041,Indigo - Centre Commercial Cap 3000,AVENUE EUGÈNE DONADEÏ  06700 SAINT-LAURENT DU VAR FRANCE, 06123001,lat,lon,Name,Adresse, Nb de places BePark,
48.8024926,2.4826869,Indigo - Hôtel de Ville,AVENUE DE DIDEROT  94100 SAINT MAUR DES FOSSES FRANCE, 94068007,lat,lon,Name,Adresse, Nb de places BePark,
48.8047556,2.4856721,Indigo - La Louvière,RUE ANDRÉ DE CAYEUX  94100 SAINT-MAUR-DES-FOSSÉS FRANCE, 94068008,lat,lon,Name,Adresse, Nb de places BePark,
48.7980422,2.4800862,Indigo - Adamville,AVENUE DE CARNOT  94100 SAINT-MAUR-DES-FOSSÉS FRANCE, 94068010,lat,lon,Name,Adresse, Nb de places BePark,
48.7948887,2.5182769,Indigo - La Varenne Chennevières,AVENUE MARIE-LOUISE  94100 SAINT-MAUR-DES-FOSSÉS FRANCE, 94068011,lat,lon,Name,Adresse, Nb de places BePark,
48.7923411,2.5160516,Indigo - Stalingrad,PLACE STALINGRAD  94100 SAINT-MAUR-DES-FOSSÉS FRANCE, 94068012,lat,lon,Name,Adresse, Nb de places BePark,
48.7998391,2.5152986,Indigo - Jardin des facultés,36 RUE BENJAMIN FRANKLIN SAINT MAUR DES FOSSÉS, 94068013,lat,lon,Name,Adresse, Nb de places BePark,
48.9121646,2.3356693,Indigo - Saint-Ouen Patinoire,4, RUE DU DOCTEUR BAUER, 93070003,lat,lon,Name,Adresse, Nb de places BePark,
48.9041780,2.3411222,Indigo - Saint-Ouen Marie Curie,7 RUE MARIE CURIE, 93400 SAINT-OUEN-SUR-SEINE, 93070004,lat,lon,Name,Adresse, Nb de places BePark,
48.9065641,2.3448631,Indigo - Saint-Ouen Eugène Berthoud,5-17, RUE EUGÈNE BERTHOUD, 93070005,lat,lon,Name,Adresse, Nb de places BePark,
48.9027640,2.3380748,Indigo - Saint-Ouen Jules Vallès,27, RUE JULES VALLÈS 93400 SAINT-OUEN-SUR-SEINE, 93070006,lat,lon,Name,Adresse, Nb de places BePark,
48.9125993,2.3280652,Indigo - Saint-Ouen Halle,11 RUE FRIDA KAHLO, 93070007,lat,lon,Name,Adresse, Nb de places BePark,
48.9130875,2.3262006,Indigo - Saint-Ouen Grand Parc,30 RUE LA CLEF DES CHAMPS, 93070008,lat,lon,Name,Adresse, Nb de places BePark,
48.9130280,2.3279998,Indigo - Saint-Ouen Château,16 RUE FRIDA KAHLO, 93070009,lat,lon,Name,Adresse, Nb de places BePark,
48.9151167,2.3232173,Indigo - Saint-Ouen Ardoin,9, RUE ARDOIN, 93070010,lat,lon,Name,Adresse, Nb de places BePark,
48.9122046,2.3282680,Indigo - Saint-Ouen L'îlot N7,33 RUE DES BATELIERS, 93400, 93070011,lat,lon,Name,Adresse, Nb de places BePark,
43.7002657,7.1187742,Indigo - Saint Paul,ROND POINT SAINTE CLAIRE  06570 SAINT PAUL DE VENCE FRANCE, 06128001,lat,lon,Name,Adresse, Nb de places BePark,
49.8463333,3.2872151,Indigo - Hôtel de Ville,PL DE L'HÔTEL DE VILLE  02100 SAINT-QUENTIN FRANCE, 02691002,lat,lon,Name,Adresse, Nb de places BePark,
43.4228021,6.7697530,Indigo - Gare,123 RUE ANTOINE BARRIÈRE  83700 SAINT-RAPHAËL FRANCE, 83118005,lat,lon,Name,Adresse, Nb de places BePark,
43.6395408,5.1025290,Indigo - Centre Hospitalier,BOULEVARD JULIEN FABRE  13300 SALON-DE-PROVENCE FRANCE, 13103007,lat,lon,Name,Adresse, Nb de places BePark,
43.6499323,5.0702794,Indigo - Emperi,COURS GIMON  13300 SALON-DE-PROVENCE FRANCE, 13103004,lat,lon,Name,Adresse, Nb de places BePark,
43.6415005,5.0999269,Indigo - Portail Coucou,BOULEVARD LAMARTINE  13300 SALON-DE-PROVENCE FRANCE, 13103005,lat,lon,Name,Adresse, Nb de places BePark,
49.1120476,7.0691931,Indigo - Carré Louvain,CHAUSSÉE DE LOUVAIN  57200 SARREGUEMINES FRANCE, 57631006,lat,lon,Name,Adresse, Nb de places BePark,
49.0915700,7.0950608,Indigo - Le Moulin,RUE DU MOULIN  57200 SARREGUEMINES FRANCE, 57631007,lat,lon,Name,Adresse, Nb de places BePark,
49.2061399,2.5919485,Indigo - Les Jardins Brunehaut,PLACE DE LA GARE 60200 SENLIS, 60612001,lat,lon,Name,Adresse, Nb de places BePark,
48.8259510,2.2183930,Indigo - Sèvres Gymnase, 39 GRANDE RUE 92310 SÈVRES FRANCE, 92072003,lat,lon,Name,Adresse, Nb de places BePark,
48.8237176,2.2126231,Indigo - Sèvres Centre Ville,10 RUE LECOINTRE 92310 SÈVRES, 92072004,lat,lon,Name,Adresse, Nb de places BePark,
48.8235645,2.2090823,Indigo - Sèvres Marché,2 TER AVENUE DE L'EUROPE 92310, 92072005,lat,lon,Name,Adresse, Nb de places BePark,
48.8215896,2.2063664,Indigo - Sèvres Gabriel Péri,8 PLACE GABRIEL PÉRI 92310, 92072006,lat,lon,Name,Adresse, Nb de places BePark,
48.8287013,2.2230659,Indigo - Sèvres Manufacture,2 PLACE DE LA MANUFACTURE NATIONALE, 92072008,lat,lon,Name,Adresse, Nb de places BePark,
48.8319904,2.2224300,Indigo - Sèvres Musée de Sèvres,RUE DE SAINT-CLOUD 92310, 92072009,lat,lon,Name,Adresse, Nb de places BePark,
48.8319904,2.2224300,Indigo - Sèvres Ile de Monsieur,RUE DE SAINT-CLOUD 92310, 92072010,lat,lon,Name,Adresse, Nb de places BePark,
48.5830409,7.7457907,Indigo - Kléber - Homme de Fer,PLACE KLÉBER  67000 STRASBOURG FRANCE, 67482001,lat,lon,Name,Adresse, Nb de places BePark,
48.5918656,7.7087909,Indigo - Hôpital Hautepierre,13 RUE ALBERT CALMETTE  67000 STRASBOURG FRANCE, 67482010,lat,lon,Name,Adresse, Nb de places BePark,
48.5873715,7.7367516,Indigo - Wodli,1, BOULEVARD DU PRÉSIDENT WILSON  67000 STRASBOURG FRANCE, 67482012,lat,lon,Name,Adresse, Nb de places BePark,
48.5843574,7.7349085,Indigo - Gare Courte durée,PARKING INDIGO GARE COURTE DURÉE - 20 PLACE DE LA GARE - 67000 STRASBOURG, 67482013,lat,lon,Name,Adresse, Nb de places BePark,
48.5715069,7.7806820,Indigo - Citadelle Dock-1,14 RUE DE NANTES 67000 STRASBOURG, 67482016,lat,lon,Name,Adresse, Nb de places BePark,
48.5744376,7.7909019,Indigo - Silo Coop,RUE LUCIE BAUD 67000 STRASBOURG, 67482017,lat,lon,Name,Adresse, Nb de places BePark,
48.5736985,7.7847334,Indigo - Starlette Petit-Rhin,31 ROUTE DU PETIT RHIN 67100 STRASBOURG, 67482018,lat,lon,Name,Adresse, Nb de places BePark,
48.8700750,2.2226090,Indigo - Hopital Foch,42 RUE DESBASSAYNS DE RICHEMONT 92150 SURESNES FRANCE, 92073008,lat,lon,Name,Adresse, Nb de places BePark,
46.3699780,6.4775499,Indigo - L'Etoile,5, AVENUE DU GÉNÉRAL DE GAULLE  74200 THONON-LES-BAINS FRANCE, 74281002,lat,lon,Name,Adresse, Nb de places BePark,
46.3704443,6.4806610,Indigo - Les Arts,PLACE DES ARTS 74200 THONON LES BAINS, 740305,lat,lon,Name,Adresse, Nb de places BePark,
46.3717156,6.4786113,Indigo - Aristide Briand,SQUARE ARISTIDE BRIAND 74200 THONON LES BAINS, 740306,lat,lon,Name,Adresse, Nb de places BePark,
46.3736517,6.4811238,Indigo - Belvédère,3, AVENUE SAINT FRANÇOIS DE SALES 74200 THONON LES BAINS, 740307,lat,lon,Name,Adresse, Nb de places BePark,
46.3701108,6.4785576,Indigo - Jules Mercier,PLACE JULES MERCIER 74200 THONON LES BAINS, 740308,lat,lon,Name,Adresse, Nb de places BePark,
48.8817063,2.7042541,Indigo - Gare,RUE DE LA GARE 77400 THORIGNY SUR MARNE, 771301,lat,lon,Name,Adresse, Nb de places BePark,
48.8817063,2.7042541,Indigo - Marne,RUE DE LA GARE 77400 THORIGNY-SUR-MARNE, 771302,lat,lon,Name,Adresse, Nb de places BePark,
48.8825249,2.7069398,Indigo - Poincare,27 RUE RAYMOND POINCARÉ 77400, 771303,lat,lon,Name,Adresse, Nb de places BePark,
45.5083900,6.9198960,Indigo - Brévières Sud,D87 B BRÉVIERES 73320 TIGNES, 73296001,lat,lon,Name,Adresse, Nb de places BePark,
45.5053610,6.9227830,Indigo - Brévières Nord,ALLÉE DU GÉANT BRÉVIERES 73320 TIGNES, 73296002,lat,lon,Name,Adresse, Nb de places BePark,
45.4945261,6.9268238,Indigo - Montayes,ESPLANADE DES MONTAYES 73320 TIGNES, 73296003,lat,lon,Name,Adresse, Nb de places BePark,
45.4942508,6.9235350,Indigo - Boisses,CHEMIN DU MARAIS 73320 TIGNES, 73296004,lat,lon,Name,Adresse, Nb de places BePark,
45.4722230,6.9090470,Indigo - Lanches,CHEMIN DE LA MAISON NEUVE 73320 TIGNES, 73296005,lat,lon,Name,Adresse, Nb de places BePark,
45.4702105,6.9099371,Indigo - Lac 1,MONTÉE DE LÔ NANSSIL 73320 TIGNES, 73296006,lat,lon,Name,Adresse, Nb de places BePark,
45.4703989,6.9084169,Indigo - Lac 2,40 PASSAGE OLYMPIQUE 2 73320 TIGNES, 73296007,lat,lon,Name,Adresse, Nb de places BePark,
45.4695110,6.9076220,Indigo - Lac 3,PLACE SANTA TERRA 73320 TIGNES, 73296008,lat,lon,Name,Adresse, Nb de places BePark,
45.4683470,6.9088840,Indigo - Rosset,PROMENADE DE TOVIÈRE 73320 TIGNES, 73296009,lat,lon,Name,Adresse, Nb de places BePark,
45.4711260,6.9147770,Indigo - Lavachet Digue,IMPASSE DE LA DIGUE 73320 TIGNES, 73296010,lat,lon,Name,Adresse, Nb de places BePark,
45.4708853,6.9139518,Indigo - Lavachet,4 ROUTE DU LAVACHET 73320 TIGNES, 73296011,lat,lon,Name,Adresse, Nb de places BePark,
45.4552904,6.8983544,Indigo - Grande Motte,AVENUE DE LA GRANDE MOTTE 73320 TIGNES, 73296012,lat,lon,Name,Adresse, Nb de places BePark,
45.4566480,6.9020050,Indigo - Boucle Est,ROUTE DU GOLF 73320 TIGNES, 73296013,lat,lon,Name,Adresse, Nb de places BePark,
45.4566480,6.9020050,Indigo - Tichot,ROUTE DU GOLF 73320 TIGNES, 73296014,lat,lon,Name,Adresse, Nb de places BePark,
45.4603780,6.9018280,Indigo - Chartreux,CHEMIN DES CHARTREUX 73320 TIGNES, 73296015,lat,lon,Name,Adresse, Nb de places BePark,
45.4589873,6.9001925,Indigo - Golf,MONTÉE DU GOLF 73320 TIGNES, 73296016,lat,lon,Name,Adresse, Nb de places BePark,
45.4565473,6.9005157,Indigo - Borsat,RUE DU VAL CLARET 73320 TIGNES, 73296017,lat,lon,Name,Adresse, Nb de places BePark,
45.4566480,6.9020050,Indigo - Nouveau Boucle Est,ROUTE DU GOLF 73320 TIGNES, 73296018,lat,lon,Name,Adresse, Nb de places BePark,
48.6728560,5.8906442,Indigo - Place de la République,10, PLACE DE LA RÉPUBLIQUE  54200 TOUL FRANCE, 54528002,lat,lon,Name,Adresse, Nb de places BePark,
43.1257208,5.9312635,Indigo - Palais Liberté,PLACE DE LA LIBERTÉ  83000 TOULON FRANCE, 83137007,lat,lon,Name,Adresse, Nb de places BePark,
43.6108630,1.4391580,Indigo - Arnaud Bernard,PLACE ARNAUD BERNARD  31000 TOULOUSE FRANCE, 31555004,lat,lon,Name,Adresse, Nb de places BePark,
43.6044292,1.4438121,Indigo - Capitole,PLACE DU CAPITOLE  31000 TOULOUSE FRANCE, 31555001,lat,lon,Name,Adresse, Nb de places BePark,
43.6003144,1.4541038,Indigo - Carnot,8 BIS BOULEVARD CARNOT SORTIE HALLE AUX GRAINS 31000 TOULOUSE FRANCE, 31555007,lat,lon,Name,Adresse, Nb de places BePark,
43.5939351,1.4144072,Indigo - Clinique Pasteur,1 RUE DE LA PETITE VITESSE  31300 TOULOUSE FRANCE, 31555018,lat,lon,Name,Adresse, Nb de places BePark,
43.6012855,1.4051036,Indigo - Du Barry,RUE DU DOCTEUR SUZANNE NOEL- ZAC DE LA CARTOUCHERIE  31500 TOULOUSE FRANCE, 31555022,lat,lon,Name,Adresse, Nb de places BePark,
43.6007022,1.4448094,Indigo - Esquirol,14, PLACE ESQUIROL  31000 TOULOUSE FRANCE, 31555006,lat,lon,Name,Adresse, Nb de places BePark,
43.6098247,1.4558280,Indigo - Gare - Marengo,2 BOULEVARD DE MARENGO  31500 TOULOUSE FRANCE, 31555021,lat,lon,Name,Adresse, Nb de places BePark,
43.6026950,1.4049811,Indigo - Grande-Bretagne,RUE LUCE BOYALS  31300 TOULOUSE FRANCE, 31555028,lat,lon,Name,Adresse, Nb de places BePark,
43.6056395,1.4491648,Indigo - Jean Jaurès,16 ALLÉE JEAN JAURÈS  31000 TOULOUSE FRANCE, 31555024,lat,lon,Name,Adresse, Nb de places BePark,
43.6073979,1.4514091,Indigo - Matabiau Ramblas,ALLÉES JEAN JAURÈS  31000 TOULOUSE FRANCE, 31555023,lat,lon,Name,Adresse, Nb de places BePark,
43.5973170,1.4451393,Indigo - Parc des Carmes,PLACE DES CARMES  31500 TOULOUSE FRANCE, 31555019,lat,lon,Name,Adresse, Nb de places BePark,
43.6065581,1.4469175,Indigo - Parc Victor Hugo,PLACE VICTOR HUGO  31500 TOULOUSE FRANCE, 31555020,lat,lon,Name,Adresse, Nb de places BePark,
43.6046256,1.4442050,Indigo - Place de l'Europe,31000 TOULOUSE FRANCE, 31555013,lat,lon,Name,Adresse, Nb de places BePark,
43.5997450,1.4078710,Indigo - Raymond Badiou,11 RUE ANDRÉ SAVES  31300 TOULOUSE FRANCE, 31555026,lat,lon,Name,Adresse, Nb de places BePark,
43.6036231,1.4524185,Indigo - Saint Aubin,PLACE SAINT AUBIN  31000 TOULOUSE FRANCE, 31555003,lat,lon,Name,Adresse, Nb de places BePark,
43.5977895,1.4299045,Indigo - Saint-Cyprien,11, PLACE JEAN DIEBOLD  31300 TOULOUSE FRANCE, 31555012,lat,lon,Name,Adresse, Nb de places BePark,
43.6000100,1.4492719,Indigo - Saint-Etienne,PLACE SAINTE-ETIENNE  31000 TOULOUSE FRANCE, 31555025,lat,lon,Name,Adresse, Nb de places BePark,
43.6032782,1.4502278,Indigo - Saint-Georges,51 BIS, RUE DU REMPART SAINT-ETIENNE  31000 TOULOUSE FRANCE, 31555005,lat,lon,Name,Adresse, Nb de places BePark,
43.5925999,1.4424482,Indigo - Saint-Michel,36 RUE DE LA CHAUSSÉE  31000 TOULOUSE FRANCE, 31555011,lat,lon,Name,Adresse, Nb de places BePark,
50.7246521,3.1578530,Indigo - Centre,RUE DE LA BIENFAISANCE  59200 TOURCOING FRANCE, 59599014,lat,lon,Name,Adresse, Nb de places BePark,
50.7215632,3.1627469,Indigo - Miss Cavell,36 BOULEVARD SALVADOR ALLENDE 59200 TOURCOING FRANCE, 59599015,lat,lon,Name,Adresse, Nb de places BePark,
50.7207777,3.1605429,Indigo - Saint Christophe,CENTRE COMMERCIAL DE L'ESPACE ST CHRISTOPHE - RUE LEHOUCQ / RUE CARNOT ET PLACE ROUSSEL  59200 TOURCOING FRANCE, 59599016,lat,lon,Name,Adresse, Nb de places BePark,
50.7163648,3.1652572,Indigo - Tourcoing Gare P+R,22 AV. ALFRED LEFRANÇOIS, 59599017,lat,lon,Name,Adresse, Nb de places BePark,
47.3929963,0.6882957,Indigo - Nationale,5, RUE EMILE ZOLA  37000 TOURS FRANCE, 37261001,lat,lon,Name,Adresse, Nb de places BePark,
47.3964309,0.6858769,Indigo - Anatole France,113 PLACE ANATOLE FRANCE  37000 TOURS FRANCE, 37261009,lat,lon,Name,Adresse, Nb de places BePark,
47.3663601,0.6782879,Indigo - Heure Tranquille,RUE MARCEL MÉRIEUX PARC DE L'HEURE TRANQUILLE 37200 TOURS FRANCE, 37261011,lat,lon,Name,Adresse, Nb de places BePark,
47.3903980,0.6943585,Indigo - Gare - Palais des Congrès,12 PLACE DU GÉNÉRAL LECLERC  37100      TOURS FRANCE, 37261002,lat,lon,Name,Adresse, Nb de places BePark,
47.3909693,0.6820639,Indigo - Halles Vieux Tours,36 PLACE GASTON PAILLHOU  37100      TOURS FRANCE, 37261003,lat,lon,Name,Adresse, Nb de places BePark,
47.3888921,0.6971789,Indigo - Champ Girault,2 RUE MAURICE GENEST  37100 TOURS FRANCE, 37261005,lat,lon,Name,Adresse, Nb de places BePark,
47.3927960,0.6935242,Indigo - Jacquemin,RUE BERNARD JACQUEMIN  37100      TOURS FRANCE, 37261006,lat,lon,Name,Adresse, Nb de places BePark,
47.3962187,0.6994322,Indigo - Mirabeau,35, RUE MIRABEAU  37100      TOURS FRANCE, 37261007,lat,lon,Name,Adresse, Nb de places BePark,
49.3655661,0.0794153,Indigo - FOCH,4 PLACE FOCH 14360 TROUVILLE-SUR-MER FRANCE, 14715003,lat,lon,Name,Adresse, Nb de places BePark,
43.5799661,7.0542614,Indigo - Parcs de surface,31 AV. HENRI POURTALET, 06220 VALLAURIS, 06155003,lat,lon,Name,Adresse, Nb de places BePark,
43.5772440,7.0550410,Indigo - Hôtel de Ville,06220 VALLAURIS  FRANCE, 06155004,lat,lon,Name,Adresse, Nb de places BePark,
43.5664151,7.0721032,Indigo - Soleil,16 AVENUE DE BELGIQUE  6220 VALLAURIS  FRANCE, 06155005,lat,lon,Name,Adresse, Nb de places BePark,
47.6565176,-2.7611954,Indigo - République,18 PLACE DE LA RÉPUBLIQUE  56000 VANNES, 56260001,lat,lon,Name,Adresse, Nb de places BePark,
48.8216157,2.2876078,Indigo - Vanves Marché,23 RUE ANTOINE FRATACCI, 92075003,lat,lon,Name,Adresse, Nb de places BePark,
48.8206580,2.2876205,Indigo - Vanves Cabourg,RUE JACQUES CABOURG, 92075004,lat,lon,Name,Adresse, Nb de places BePark,
49.0933433,1.4836668,Indigo - Vernon Coeur de Ville,4 RUE CHARLES JOSEPH RIQUIER  27200      VERNON  FRANCE, 27681002,lat,lon,Name,Adresse, Nb de places BePark,
49.0926940,1.4870380,Indigo - Collégiale, RUE DES PONTONNIERS  27200      VERNON  FRANCE, 27681003,lat,lon,Name,Adresse, Nb de places BePark,
49.0904254,1.4843736,Indigo - Vernon Marché,PLACE RÉPUBLIQUE  27200      VERNON  FRANCE, 27681004,lat,lon,Name,Adresse, Nb de places BePark,
48.8042050,2.1576380,Indigo - Grand Siècle,7/9, BOULEVARD DES JEUX OLYMPIQUES  78000 VERSAILLES FRANCE, 78646012,lat,lon,Name,Adresse, Nb de places BePark,
48.8091401,2.1338407,Indigo - Reine-Richaud,81 BOULEVARD DE LA REINE VERSAILLES, 7802132,lat,lon,Name,Adresse, Nb de places BePark,
48.8054709,2.1325176,Indigo - Saint-Cloud,33 AVENUE DE SAINT-CLOUD  78000 VERSAILLES FRANCE, 78646001,lat,lon,Name,Adresse, Nb de places BePark,
48.8063659,2.1325868,Indigo - Marché Notre-Dame,HALLES DE VERSAILLES CARRÉ À LA FARINE 78000 VERSAILLES FRANCE, 78646002,lat,lon,Name,Adresse, Nb de places BePark,
48.8277715,2.1892228,Indigo - Fontaine du Roy,6 RUE DE SAINT-CLOUD  92410 VILLE-D'AVRAY FRANCE, 92077001,lat,lon,Name,Adresse, Nb de places BePark,
48.7877538,2.3674641,Indigo - Villejuif Louis Aragon,172, BOULEVARD MAXIME GORKI 94800 VILLEJUIF, 941802,lat,lon,Name,Adresse, Nb de places BePark,
48.8483832,2.4393217,Indigo - Coeur de Ville,1, AVENUE DE VORGES  94300 VINCENNES FRANCE, 94080001,lat,lon,Name,Adresse, Nb de places BePark,
48.8459565,2.4390055,Indigo - Marigny Château,COURS MARIGNY  94300 VINCENNES FRANCE, 94080007,lat,lon,Name,Adresse, Nb de places BePark,
45.3640952,5.5935405,Indigo - Voiron 7 parcs,PARKING DES TISSERANDS - 30 BOULEVARD FRANKLIN ROOSEVELT  38500 VOIRON FRANCE, 38563004,lat,lon,Name,Adresse, Nb de places BePark,
51.2332858,2.9200492,Indigo - Mijnplein,MIJNPLEIN 0 8400 OOSTENDE BELGIUM, OOMP,lat,lon,Name,Adresse, Nb de places BePark,
51.2299189,2.9234035,Indigo - Visserskaai,VISSERSKAAI  1 8400 OOSTENDE BELGIUM, OOVK,lat,lon,Name,Adresse, Nb de places BePark,
51.2299612,2.9120570,Indigo - Zeedijk boxen,IJZERSTRAAT 8400 OOSTENDE, OOZD,lat,lon,Name,Adresse, Nb de places BePark,
51.2286718,2.9159118,Indigo - Zeeparking,LEOPOLD II LAAN 8400  OOSTENDE BELGIUM, OOZP,lat,lon,Name,Adresse, Nb de places BePark,
51.2325696,2.9146126,Indigo - Kursaal 2,CHRISTINASTRAAT  23F 8400 OOSTENDE BELGIUM, OOK2,lat,lon,Name,Adresse, Nb de places BePark,
51.2246214,2.9078720,Indigo - Koninginnelaan,KONINGINNELAAN  65 8400 OOSTENDE BELGIUM, OOKL,lat,lon,Name,Adresse, Nb de places BePark,
51.2312384,2.9131615,Indigo - Kursaal 1 Oostende,MONACOPLEIN  1 8400 OOSTENDE BELGIUM, OOK1,lat,lon,Name,Adresse, Nb de places BePark,
51.2337117,2.9182704,Indigo - Zeedijk,KAPUCIJNENSTRAAT 8400 OOSTENDE, OOZK,lat,lon,Name,Adresse, Nb de places BePark,
51.2272930,2.9233736,Indigo - Sky Parking Oostende,LEOPOLD III-LAAN 6A  8400  OOSTENDE BELGIUM, OOSK,lat,lon,Name,Adresse, Nb de places BePark,
51.2327993,2.9152381,Indigo - Centrum Parking Oostende,CHRISTINASTRAAT 18C 8400 OOSTENDE BELGIUM, OOCP,lat,lon,Name,Adresse, Nb de places BePark,
51.2187779,4.4012015,Indigo - Groenplaats,GROENPLAATS 46A 2000 ANTWERPEN BELGIUM, ANGP,lat,lon,Name,Adresse, Nb de places BePark,
51.2139456,4.4077987,Indigo - Leopold,H VAN HEURCKSTRAAT  9-23 2000 ANTWERPEN BELGIUM, ANLP,lat,lon,Name,Adresse, Nb de places BePark,
51.2118158,4.4081530,Indigo - Nationale Bank,FRANKRIJKLEI  166 2000 ANTWERPEN BELGIUM, ANNB,lat,lon,Name,Adresse, Nb de places BePark,
51.2050328,4.3821408,Indigo - Zuiderplein,MICHEL DE BRAEYSTRAAT 55 2000 ANTWERPEN BELGIUM, ANZP,lat,lon,Name,Adresse, Nb de places BePark,
51.1855581,4.4550409,Indigo - Antwerpen Airport Parking,LUCHTHAVENLEI 2100 ANTWERPEN BELGIUM, ANAI,lat,lon,Name,Adresse, Nb de places BePark,
51.1999988,4.4357195,Indigo - Post X,BORSBEEKSEBRUG 22-30  2600 ANTWERPEN BELGIUM, BCPO,lat,lon,Name,Adresse, Nb de places BePark,
51.2163057,4.4182397,Indigo - Diamant,APPELMANSSTRAAT 25 2018 ANTWERPEN BELGIUM, ANDI,lat,lon,Name,Adresse, Nb de places BePark,
51.2199842,4.4218162,Indigo - Zoo,VAN SCHOONHOVERSTRAAT 25-27 2060 ANTWERPEN BELGIUM, ANZO,lat,lon,Name,Adresse, Nb de places BePark,
51.2167909,4.4114147,Indigo - Inno Antwerpen,HOPLAND 45 2000 ANTWERPEN BELGIUM, ANIN,lat,lon,Name,Adresse, Nb de places BePark,
51.2190304,4.4157142,Indigo - Opera,JOS BRABANTSTUNNEL 2000 ANTWERPEN, ANOP,lat,lon,Name,Adresse, Nb de places BePark,
51.2136339,4.4057045,Indigo - Botanic Garden,  LEOPOLDSTRAAT 26, 2000 ANTWERPEN BELGIUM, ANBO,lat,lon,Name,Adresse, Nb de places BePark,
51.2320409,4.4182989,Indigo - ZNA Cadix,ASIADOK-OOSTKAAI 20, 2030 ANTWERPEN, ANZA,lat,lon,Name,Adresse, Nb de places BePark,
51.1943126,4.4038293,Indigo - Greenhouse Collection,DESGUINLEI  100, 2018 ANTWERPEN, ANGC,lat,lon,Name,Adresse, Nb de places BePark,
51.1944581,4.3554304,Indigo - Blue Gate Maaiveld,NAFTAWEG 2000 ANTWERPEN, ANBG,lat,lon,Name,Adresse, Nb de places BePark,
51.1706587,4.4491743,Indigo - Stadsterras,MORTSEL MECHELSESTEENWEG EDEGEMSESTRAAT, MTSD,lat,lon,Name,Adresse, Nb de places BePark,
51.2292721,4.4013864,Indigo - Hangar 26,2000 ANTWERPEN - RIJNKAAI 94-104, ANHA,lat,lon,Name,Adresse, Nb de places BePark,
51.2329759,4.4039776,Indigo - Montevideo,2000 ANTWERPEN MONTEVIDEOSTRAAT, ANMV,lat,lon,Name,Adresse, Nb de places BePark,
51.0269729,4.4794078,Indigo - Centerparking Mechelen,BLAUWHONDSTRAAT 2 2800 MECHELEN BELGIUM, MECP,lat,lon,Name,Adresse, Nb de places BePark,
51.0278350,4.4797220,Indigo - Grote Markt Mechelen,GROTE MARKT 39 2800 MECHELEN BELGIUM, MEGM,lat,lon,Name,Adresse, Nb de places BePark,
51.0291654,4.4838820,Indigo - Veemarkt,VEEMARKT 19 2800 MECHELEN BELGIUM, MEVM,lat,lon,Name,Adresse, Nb de places BePark,
51.0246071,4.4751334,Indigo - Spiegelstraat,2800 MECHELEN SPIEGELSTRAAT, MESP,lat,lon,Name,Adresse, Nb de places BePark,
51.0293885,4.4781439,Indigo - Kathedraal,SINT-ROMBOUTSKERKHOF 6 2800 MECHELEN BELGIUM, MEKA,lat,lon,Name,Adresse, Nb de places BePark,
51.0232686,4.4747287,Indigo - Hoogstraat,GANZENDRIES  21 2800 MECHELEN BELGIUM, MEHS,lat,lon,Name,Adresse, Nb de places BePark,
51.0331572,4.4828537,Indigo - Tinel,EDGARD TINELLAAN 5 2800 MECHELEN BELGIUM, METI,lat,lon,Name,Adresse, Nb de places BePark,
51.0243247,4.4703658,Indigo - Komet,KONINGIN ASTRIDLAAN 134 - 2800 MECHELEN BELGIUM, MEKO,lat,lon,Name,Adresse, Nb de places BePark,
51.0380257,4.4871778,Indigo - KV Mechelen,ZIEKEBEEMDEN 7 2800 MECHELEN BELGIUM, MEKV,lat,lon,Name,Adresse, Nb de places BePark,
51.0200809,4.4768431,Indigo - Maarten,LEOPOLDSTRAAT 2 2800 MECHELEN BELGIUM, MEMA,lat,lon,Name,Adresse, Nb de places BePark,
51.0346935,4.4704237,Indigo - Keerdok,ANTONIA WOLVERSSTRAAT 1 2800 MECHELEN BELGIUM, MEKD,lat,lon,Name,Adresse, Nb de places BePark,
50.9894399,5.0578999,Indigo - Ezeldijk,SCHOENMAKERSSTRAAT 2 - 3290 DIEST, DIED,lat,lon,Name,Adresse, Nb de places BePark,
51.1180255,2.6344084,Indigo - Kursaal Koksijde,KURSAALLAAN 26 8670 KOKSIJDE, KKCA,lat,lon,Name,Adresse, Nb de places BePark,
51.1877251,2.8140968,Indigo - Middelkerke Casino,ZEEDIJK 116/Z, 8430 MIDDELKERKE, MICA,lat,lon,Name,Adresse, Nb de places BePark,
50.8434959,4.3754101,Indigo - Thon,TRIERSTRAAT 120 1040 BRUSSEL BELGIUM, BXTH,lat,lon,Name,Adresse, Nb de places BePark,
50.8632700,4.3522120,Indigo - Up-site,WILLEBROEKKAAI 35 1000 BRUSSEL BELGIUM, BXUP,lat,lon,Name,Adresse, Nb de places BePark,
50.7215372,4.5146202,Indigo - Les Papeteries de Genval,SQUARE DES PAPETERIES 1332 RIXENSART, GNPA,lat,lon,Name,Adresse, Nb de places BePark,
50.8490522,4.3626250,Indigo - Royal,RUE DE LIGNE, 27 1000 BRUSSEL BELGIUM, BXRO,lat,lon,Name,Adresse, Nb de places BePark,
50.8545822,4.4485035,Indigo - Alma,LENNEKE MARELAAN 2 1932 SINT-STEVENS-WOLUWE BELGIUM, SWAS,lat,lon,Name,Adresse, Nb de places BePark,
50.8856679,4.4433299,Indigo - A-Stay,BERKENLAAN 8C 1831 DIEGEM BELGIUM, DGAS,lat,lon,Name,Adresse, Nb de places BePark,
50.8496501,4.3682233,Indigo - Spectrum,KORTE NOORDSTRAAT 1000 BRUSSEL, BXSP,lat,lon,Name,Adresse, Nb de places BePark,
50.8975411,4.3334721,Indigo - Heysel P+R,AVENUE IMPÉRATRICE CHARLOTTE 1020 BRUXELLES, BXHE,lat,lon,Name,Adresse, Nb de places BePark,
50.8793322,4.3730967,Indigo - Docks Bruxsel,LAMBERMONTLAAN 1 1000 BRUSSEL, BXDB,lat,lon,Name,Adresse, Nb de places BePark,
50.8622565,4.3272796,Indigo - Comenius,FÉLIX VANDE SANDESTRAAT 11 1081 BRUSSEL(KOEKELBERG) BELGIUM, BXCO,lat,lon,Name,Adresse, Nb de places BePark,
50.8139343,4.3578839,Indigo - Edith Cavell,RUE GÉNÉRAL LOTZ 37 1180 BRUSSEL(UKKEL) BELGIUM, BXEC,lat,lon,Name,Adresse, Nb de places BePark,
50.8638697,4.3297121,Indigo - Simonis,PLACE EUGÈNE SIMONIS 24 - 1081 BRUXELLES, BXSI,lat,lon,Name,Adresse, Nb de places BePark,
50.8029230,4.4259170,Indigo - Royale Belge,BOULEVARD DU SOUVERAIN 25 1170 WATERMAAL BOSVOORDE, BXRB,lat,lon,Name,Adresse, Nb de places BePark,
50.8558086,4.3633613,Indigo - Victoria,1 SQUARE VICTORIA RÉGINA, 1210 BRUXELLES, BXVI,lat,lon,Name,Adresse, Nb de places BePark,
50.8048629,4.3691019,Indigo - St-Elisabeth,DE FRÉLAAN 260 1180 UKKEL, BXSE,lat,lon,Name,Adresse, Nb de places BePark,
50.8421999,4.3991148,Indigo - St-Michel,RUE CHARLES DEGROUX 74 1040 ETTERBEEK, BXSM,lat,lon,Name,Adresse, Nb de places BePark,
50.8300879,4.3465095,Indigo - Rue de Moscou,1060 SAINT-GILLES RUE DE MOSCOU 14, BXMO,lat,lon,Name,Adresse, Nb de places BePark,
50.8071392,4.3129514,Indigo - Foyer du Sud,1190 FOREST AVENUE DES HUILERIES 32, BXFO,lat,lon,Name,Adresse, Nb de places BePark,
50.8109578,4.3248286,Indigo - Foyer du Sud,1190 FOREST AVENUE DU GLOBE 4, BXFO,lat,lon,Name,Adresse, Nb de places BePark,
50.8090557,4.3151437,Indigo - Foyer du Sud,1190 FOREST RUE DRIES 8, BXFO,lat,lon,Name,Adresse, Nb de places BePark,
51.3254147,4.9429866,Indigo - Centrumparking De Warande Turnhout,WEZENSTRAAT 4 2300 TURNHOUT BELGIUM, TUWA,lat,lon,Name,Adresse, Nb de places BePark,
51.3228440,4.9446110,Indigo - HEMA Turnhout,LEOPOLDSTRAAT  9 2300 TURNHOUT BELGIUM, TUHE,lat,lon,Name,Adresse, Nb de places BePark,
51.3195162,4.9433464,Indigo - Viane,KORTE VIANESTRAAT  2 2300 TURNHOUT BELGIUM, TUVI,lat,lon,Name,Adresse, Nb de places BePark,
51.3221544,4.9397996,Indigo - Merode,MERODE-CENTER 21 2300 TURNHOUT, TUME,lat,lon,Name,Adresse, Nb de places BePark,
51.3205333,4.9446524,Indigo - GB Turnhout,KORTE GASTHUISSTRAAT 38 2300 TURNHOUT, TUGB,lat,lon,Name,Adresse, Nb de places BePark,
51.3133559,4.9413321,Indigo - AZ-Campus Sint-Elisabeth,RUBENSSTRAAT 166 2300 TURNHOUT, TUZT,lat,lon,Name,Adresse, Nb de places BePark,
51.3222574,4.9521418,Indigo - Turnova,P.J. BREPOLSPLEIN 20 - 2300 TURNHOUT, TUTU,lat,lon,Name,Adresse, Nb de places BePark,
51.3213498,4.9434104,Indigo - Le Bon,VICTORIESTRAAT 39 2300 TURNHOUT, TULB,lat,lon,Name,Adresse, Nb de places BePark,
51.3160035,4.9299206,Indigo - Blairon,CAMPUS BLAIRON 200 TURNHOUT, TUBL,lat,lon,Name,Adresse, Nb de places BePark,
51.3251596,4.9493156,Indigo - PP41,2300 TURNHOUT PATERSTRAAT 41, TU41,lat,lon,Name,Adresse, Nb de places BePark,
50.8819542,4.7074781,Indigo - Diestsestraat,J P MINCKELERSSTRAAT 35 3000 LEUVEN, LEDS,lat,lon,Name,Adresse, Nb de places BePark,
50.8856924,4.7106075,Indigo - Vuurkruisenlaan,VUURKRUISENLAAN 4 3000 LEUVEN BELGIUM, LEVK,lat,lon,Name,Adresse, Nb de places BePark,
51.0975003,4.1376890,Indigo - Nieuwstraat,NIEUWSTRAAT 15 9220 HAMME, HMNI,lat,lon,Name,Adresse, Nb de places BePark,
51.1001031,4.1371947,Indigo - Marktplein Hamme,MEULENBROEKSTRAAT 1E, 9220 HAMME BELGIUM, HMMP,lat,lon,Name,Adresse, Nb de places BePark,
51.1474398,3.2435440,Indigo - O'Forty,KAPELLESTRAAT 8020 OOSTKAMP BELGIUM, OSOF,lat,lon,Name,Adresse, Nb de places BePark,
51.3125958,4.4296623,Indigo - Promenade Kapellen,ANTWERPSESTEENWEG 51 2950 KAPELLEN BELGIUM, KAPR,lat,lon,Name,Adresse, Nb de places BePark,
51.2145655,4.2568522,Indigo - Warande Beveren,KASTEELDREEF 19 9120 BEVEREN BELGIUM, BEWA,lat,lon,Name,Adresse, Nb de places BePark,
50.8283179,4.3726151,Indigo - Flagey,EUGÈNE FLAGEYPLEIN 1050 ELSENE BELGIUM, IXFL,lat,lon,Name,Adresse, Nb de places BePark,
50.8161622,4.3830928,Indigo - Solbosch,1050 IXELLEX - ADOLPHE BUYLLAAN 110, IXSB,lat,lon,Name,Adresse, Nb de places BePark,
50.6447000,5.5761200,Indigo - Hénaux,RUE FERDINAND HÉNAUX 4000 LIEGE BELGIUM, LIHE,lat,lon,Name,Adresse, Nb de places BePark,
50.6468058,5.5710309,Indigo - Saint-Servais,RUE FOND SAINT SERVAIS 4000 LIEGE, LISS,lat,lon,Name,Adresse, Nb de places BePark,
50.6437992,5.5672501,Indigo - Neujean,4000 LIÈGE - BOULEVARD DE LA SAUVENIÈRE 45, LINJ,lat,lon,Name,Adresse, Nb de places BePark,
50.9150069,4.4209185,Indigo - 4 Fonteinen,SCHAARBEEKLEI 344 1800 VILVOORDE, VI4F,lat,lon,Name,Adresse, Nb de places BePark,
50.9328960,4.4247488,Indigo - Aldi,MECHELSESTEENWEG 23 - 1800 VILVOORDE, VIAL,lat,lon,Name,Adresse, Nb de places BePark,
50.8145006,4.2676889,Indigo - Erasme,LENNIKSE BAAN  806 1070 ANDERLECHT BELGIUM, ADER,lat,lon,Name,Adresse, Nb de places BePark,
50.8145006,4.2676889,Indigo - Lennik,LENNIKSE BAAN  806 1070 ANDERLECHT BELGIUM, ADLE,lat,lon,Name,Adresse, Nb de places BePark,
50.8145006,4.2676889,Indigo - Annexe Erasme,LENNIKSE BAAN  806 1070 ANDERLECHT BELGIUM, ADAN,lat,lon,Name,Adresse, Nb de places BePark,
50.8357199,4.3310514,Indigo - Gare du Midi 2,RUE BARA 101 1070 ANDERLECHT BELGIUM, ADM2,lat,lon,Name,Adresse, Nb de places BePark,
50.8275659,4.2877215,Indigo - Marius Renard,AVENUE MARIUS RENARD 21 1070 ANDERLECHT BELGIUM, ADMR,lat,lon,Name,Adresse, Nb de places BePark,
50.8142464,5.1833045,Indigo - Centrum Sint-Truiden,SLUISBERG 5 3800 SINT-TRUIDEN BELGIUM, STCE,lat,lon,Name,Adresse, Nb de places BePark,
50.8564011,4.3572033,Indigo - Manhattan,RUE DES CROISADES 19 1210 BRUXELLES, SJMA,lat,lon,Name,Adresse, Nb de places BePark,
50.9396887,4.0361910,Indigo - Ridderstraat,DE RIDDERSTRAAT 15 9300 AALST BELGIUM, AARS,lat,lon,Name,Adresse, Nb de places BePark,
50.9408480,4.0419260,Indigo - Postsite,VAARTSTRAAT 18 9300 AALST BELGIUM, AAPS,lat,lon,Name,Adresse, Nb de places BePark,
51.0658561,3.7326489,Indigo - Dok Noord,DOK NOORD  7 9000 GENT BELGIUM, GEDN,lat,lon,Name,Adresse, Nb de places BePark,
51.0537885,3.7006972,Indigo - Groene Vallei,BROEDERLIJKE WEVERSPLEIN 1 9000 GENT BELGIUM, GEGV,lat,lon,Name,Adresse, Nb de places BePark,
51.0623878,3.7386357,Indigo - Nieuwe Dokken,KOOPVAARDIJLAAN, GEND,lat,lon,Name,Adresse, Nb de places BePark,
51.0407062,3.7231492,Indigo - Leopoldskazerne,CHARLES DE KERCKHOVELAAN 189 9000 GENT, GELK,lat,lon,Name,Adresse, Nb de places BePark,
51.0551340,3.7063592,Indigo - Watt,NIEUWEWANDELING 64  9000 GENT BELGIUM9000 GENT BELGIUM, GEWA,lat,lon,Name,Adresse, Nb de places BePark,
51.0113374,3.7125904,Indigo - Techlane,TECHNOLOGIEPARK-ZWIJNAARDE 105 9052 ZWIJNAARDE BELGIUM, GETL,lat,lon,Name,Adresse, Nb de places BePark,
51.0284746,3.6952032,Indigo - Networks 1,RAYMONDE DE LAROCHELAAN 9051 SINT-DENIJS-WESTREM BELGIUM, GEN1,lat,lon,Name,Adresse, Nb de places BePark,
51.0280549,3.6866498,Indigo - The Loop,LOUIS BLÉRIOTLAAN 9051 GENT, GELO,lat,lon,Name,Adresse, Nb de places BePark,
51.3118056,3.1335866,Indigo - Centrum Blankenberge,KERKSTRAAT  122 8370 BLANKENBERGE BELGIUM, BLPC,lat,lon,Name,Adresse, Nb de places BePark,
51.1496898,2.7240470,Indigo - Promenade Nieuwpoort,DIENSTWEG HAVENGEUL 12 A 8620 NIEUWPOORT BELGIUM, NIPR,lat,lon,Name,Adresse, Nb de places BePark,
51.1450020,2.7130139,Indigo - Nieuwlandplein,ELISALAAN 72 8620 NIEUWPOORT, NIP1,lat,lon,Name,Adresse, Nb de places BePark,
50.5943150,5.8645278,Indigo - Centre Verviers,RUE DU COLLÈGE 9 4800 VERVIERS BELGIUM, VEPC,lat,lon,Name,Adresse, Nb de places BePark,
50.4078729,3.8926453,Indigo - Centre Frameries,RUE BOSQUETIA 21A 7080 FRAMERIES BELGIUM, FRPC,lat,lon,Name,Adresse, Nb de places BePark,
50.4509697,3.9505904,Indigo - Grand Rue,RUE NOTRE DAME 40 7000 MONS, M1GR,lat,lon,Name,Adresse, Nb de places BePark,
50.9835100,4.8310600,Indigo - De Torens,LEUVENSESTRAAT, 3200 AARSCHOT, ARTO,lat,lon,Name,Adresse, Nb de places BePark,
50.8246588,4.5154255,Indigo - Markt Tervuren,MARKT 7B 3080 TERVUREN, TVMT,lat,lon,Name,Adresse, Nb de places BePark,
50.8308258,4.3578720,Indigo - Louise,RUE DE LIVOURNE  11 1000 BRUSSEL BELGIUM, SGLO,lat,lon,Name,Adresse, Nb de places BePark,
49.6827960,5.8130205,Indigo - Espace Didier,PLACE LEOPOLD 6700 ARLON, ALLE,lat,lon,Name,Adresse, Nb de places BePark,
50.8523821,4.3385789,Indigo - Brunfaut,RUE FERDINAND BRUNFAUT 18 1080 BRUSSEL BELGIUM, MLBR,lat,lon,Name,Adresse, Nb de places BePark,
50.4083838,4.4387365,Indigo - Rive Gauche,BOULEVARD TIROU 20 6000 CHARLEROI, CHRG,lat,lon,Name,Adresse, Nb de places BePark,
50.8371253,4.4167488,Indigo - Medicis,FRANÇOIS GAY  330 1150 BRUSSEL BELGIUM, WPME,lat,lon,Name,Adresse, Nb de places BePark,
50.8505025,2.8891220,Indigo - Menenpoort,SINT-JACOBSSTRAAT 15 8900 IEPER BELGIUM, IEMP,lat,lon,Name,Adresse, Nb de places BePark,
50.7907542,4.3743044,Indigo - Galerie Fort Jaco,CHAUSSÉE DE WATERLOO 1333 1180 BRUSSEL BELGIUM, UCFJ,lat,lon,Name,Adresse, Nb de places BePark,
50.4891462,5.0972397,Indigo - Les Tilleuls Andenne,RUE BRUN 1 5300 ANDENNE BELGIUM, A1LT,lat,lon,Name,Adresse, Nb de places BePark,
50.8699319,5.5150827,Indigo - Commanderie,ROMBOUTSTRAAT 17 3740 BILZEN BELGIUM, BICO,lat,lon,Name,Adresse, Nb de places BePark,
50.8717212,5.5164854,Indigo - De Klokke,KLOKKESTRAAT 28 3740 BILZEN BELGIUM, BIDK,lat,lon,Name,Adresse, Nb de places BePark,
51.0852246,4.3623110,Indigo - Rupel,WINDSTRAAT 1, 2850 BOOM, BMRU,lat,lon,Name,Adresse, Nb de places BePark,
51.0854816,4.3705639,Indigo - Pachterslei,BOOM PACHTERSLEI, BMPL,lat,lon,Name,Adresse, Nb de places BePark,
50.8712987,3.8087434,Indigo - Oud College, NEERHOFSTRAAT 9620 ZOTTEGEM BELGIUM, ZOOC,lat,lon,Name,Adresse, Nb de places BePark,
51.0315663,4.0926635,Indigo - Bibliotheek,KERKSTRAAT 111 9200 DENDERMONDE BELGIUM, DDBI,lat,lon,Name,Adresse, Nb de places BePark,
51.0317432,4.1056037,Indigo - Mechelsepoort,OUDE VEST 178 9200 DENDERMONDE BELGIUM, DDMP,lat,lon,Name,Adresse, Nb de places BePark,
51.0295315,4.1018123,Indigo - Hof van Saeys,OUDE VEST 77 DENDERMONDE, DDHS,lat,lon,Name,Adresse, Nb de places BePark,
50.7376867,4.2334667,Indigo - Carrefour Halle,DEMAEGHTLAAN 121 1500 HALLE BELGIUM, HACA,lat,lon,Name,Adresse, Nb de places BePark,
50.7400582,4.2368607,Indigo - OCMW Halle,AUGUSTE DEMAEGHTLAAN 38 1500 HALLE BELGIUM, HAOC,lat,lon,Name,Adresse, Nb de places BePark,
50.6657722,5.6302509,Indigo - Jean Jaurès,PLACE JEAN JAURES 4040 HERSTAL BELGIUM, HEJJ,lat,lon,Name,Adresse, Nb de places BePark,
51.1312394,4.5678472,Indigo - Grote Markt Lier,FLORENT VAN CAUWENBERGSTRAAT 13-15 2500 LIER BELGIUM, LRGM,lat,lon,Name,Adresse, Nb de places BePark,
51.1320463,4.5601322,Indigo - Dungelhoeff,PARADEPLEIN 4 2500 LIER BELGIUM, LRDU,lat,lon,Name,Adresse, Nb de places BePark,
51.1307591,4.5788463,Indigo - Sion,KOEPOORTSTRAAT 14 2500 LIER BELGIUM, LRSI,lat,lon,Name,Adresse, Nb de places BePark,
50.7139042,4.6109468,Indigo - Bosch,PLACE BOSCHE 1300 WAVRE BELGIUM, WVBO,lat,lon,Name,Adresse, Nb de places BePark,
50.7155225,4.6038047,Indigo - Ermitage,RUE DE L'ERMITAGE 43/45 1300 WAVRE BELGIUM, WVER,lat,lon,Name,Adresse, Nb de places BePark,
50.7150564,4.6096635,Indigo - Des Carabiniers,RUE DE CARABINIERS 1 1300 WAVRE, WVCA,lat,lon,Name,Adresse, Nb de places BePark,
51.0499922,3.7303853,Indigo - The Loop,LOOP GENT, EVGL,lat,lon,Name,Adresse, Nb de places BePark,
51.2176565,4.4469900,Indigo - Sportpaleis,NOORDERSINGEL   9000 ANTWERPEN BELGIUM, EVSP,lat,lon,Name,Adresse, Nb de places BePark,
40.4316591,-3.7063496,Indigo - Quevedo,CL RODRIGUEZ SAN PEDRO, 6D 28013 MADRID SPAIN, ES0101,lat,lon,Name,Adresse, Nb de places BePark,
40.4369305,-3.6811957,Indigo - María de Molina,CL MARÍA DE MOLINA, 48-5028 28006 MADRID SPAIN, ES0102,lat,lon,Name,Adresse, Nb de places BePark,
40.4588346,-3.6769240,Indigo - República Dominicana,PZ REPUBLICA DOMINICANA, S/N 28016 MADRID SPAIN, ES0103,lat,lon,Name,Adresse, Nb de places BePark,
40.4580482,-3.6941683,Indigo - Orense,CL ORENSE, 50 28020 MADRID SPAIN, ES0104,lat,lon,Name,Adresse, Nb de places BePark,
40.4679561,-3.6895314,Indigo - Plaza Castilla,CALLE SAN BENITO, 3-5, 28046 MADRID SPAIN, ES0106,lat,lon,Name,Adresse, Nb de places BePark,
40.4250671,-3.7132631,Indigo - Princesa,CL PRINCESA, 5 28008 MADRID SPAIN, ES0107,lat,lon,Name,Adresse, Nb de places BePark,
40.4862986,-3.6660473,Indigo - Manoteras,AV MANOTERAS, 40 28050 MADRID SPAIN, ES0111,lat,lon,Name,Adresse, Nb de places BePark,
40.4226840,-3.7228205,Indigo - Principe Pio,PS DE LA FLORIDA, S/N 28008 MADRID SPAIN, ES0114,lat,lon,Name,Adresse, Nb de places BePark,
40.4441210,-3.7007843,Indigo - Maria de Guzman,CL MARÍA DE GUZMAN, 16 28003 MADRID SPAIN, ES0115,lat,lon,Name,Adresse, Nb de places BePark,
40.4299145,-3.7185057,Indigo - Marqués de Urquijo,CL MARQUES DE URQUIJO, S/N 28008 MADRID SPAIN, ES0118,lat,lon,Name,Adresse, Nb de places BePark,
40.4651689,-3.6901870,Indigo - San Cayetano (M),PZ DE SAN CAYETANO, S/N 28028 MADRID SPAIN, ES0119,lat,lon,Name,Adresse, Nb de places BePark,
41.3737191,2.1707926,Indigo - Tres Chimeneas (Mata),CL VILA I VILA, 44 8004 BARCELONA SPAIN, ES0201,lat,lon,Name,Adresse, Nb de places BePark,
41.3970229,2.1287395,Indigo - Joaquin Pena,PZ JOAQUIN PENA, 12 8017 BARCELONA SPAIN, ES0203,lat,lon,Name,Adresse, Nb de places BePark,
41.4378689,2.1966180,Indigo - Can Fabra,8030 BARCELONA SPAIN, ES0207,lat,lon,Name,Adresse, Nb de places BePark,
41.3933445,2.1363371,Indigo - Piscinas y Deportes,CL GANDUXER, 25-27 8021 BARCELONA SPAIN, ES0208,lat,lon,Name,Adresse, Nb de places BePark,
41.3825156,2.1396601,Indigo - Car Berlin,CL NUMANCIA, 33-45 8029 BARCELONA SPAIN, ES0209,lat,lon,Name,Adresse, Nb de places BePark,
41.3616387,2.1324390,Indigo - Justicia,AV GRAN VIA DE L'HOSPITALET, 25 8908 BARCELONA SPAIN, ES0210,lat,lon,Name,Adresse, Nb de places BePark,
41.3679526,2.0889949,Indigo - Isabel La Católica,AV ELECTRICIDAD, 19 8906 L'HOSPITALET DE LLOBREGAT SPAIN, ES0213,lat,lon,Name,Adresse, Nb de places BePark,
41.3750998,2.1829271,Indigo - Maremagnum,MOLL D'ESPANYA, 5 8039 BARCELONA SPAIN, ES0218,lat,lon,Name,Adresse, Nb de places BePark,
41.3767665,2.0988984,Indigo - Finestrelles,CARRER DE LAUREÀ MIRÓ, 38 8950 ESPLUGUES DE LLOGREGAT SPAIN, ES0219,lat,lon,Name,Adresse, Nb de places BePark,
41.3921634,2.1393266,Indigo - Plaza Wagner,PLAÇA DE WAGNER, S/N, 08021 SPAIN, ES0220,lat,lon,Name,Adresse, Nb de places BePark,
41.4299124,2.1728485,Indigo - Mercado Mercè,CL MIQUEL FERRÀ (PZ DE PAUL CLAUDEL) 8031 BARCELONA SPAIN, ES0221,lat,lon,Name,Adresse, Nb de places BePark,
41.5381113,2.1880815,Indigo - CIM Valles,CL CALDERI, S/N - 08130 SANTA PERPETUA DE MOGODA, ES0222,lat,lon,Name,Adresse, Nb de places BePark,
41.3471093,2.1018477,Indigo - Bellvitge,FEIXA LLARGA, S/N 8907 HOSPITALET DE LLOBREGAT SPAIN, ES0223,lat,lon,Name,Adresse, Nb de places BePark,
41.3842701,2.1855573,Indigo - Borne,PZ COMERCIAL, S/N 8003 BARCELONA SPAIN, ES0224,lat,lon,Name,Adresse, Nb de places BePark,
41.4182256,2.1769564,Indigo - CAP Maragall,PS MARAGALL 52-54 8041 BARCELONA SPAIN, ES0225,lat,lon,Name,Adresse, Nb de places BePark,
41.3939538,2.1300259,Indigo - Clínica Corachan,PZ DE MANUEL CORACHAN, 4 8017 BARCELONA SPAIN, ES0226,lat,lon,Name,Adresse, Nb de places BePark,
41.5788960,1.6154700,Indigo - Plaza Creu,PZ DE LA CREU, S/N 8700 IGUALADA SPAIN, ES0227,lat,lon,Name,Adresse, Nb de places BePark,
41.5412624,2.2017693,Indigo - Hospital Mollet del Vallés,RD DELS PINETONS, S/N 8100 MOLLET DEL VALLÈS SPAIN, ES0228,lat,lon,Name,Adresse, Nb de places BePark,
41.5382579,2.2155197,Indigo - Pruneres,RAMBLA DE POMPEU FABRA, 9-19, 08100 MOLLET DEL VALLÈS, BARCELONA, ESPAGNE, ES0229,lat,lon,Name,Adresse, Nb de places BePark,
41.4898791,2.0344217,Indigo - Mercado Rubi,CL MAGÍ RAMENTOL, S/N 8191 RUBÍ SPAIN, ES0230,lat,lon,Name,Adresse, Nb de places BePark,
41.5327872,2.4397410,Indigo - Tomás y Valiente,PLAÇA FRANCISCO TOMÀS Y VALIENTE, 1, 08302 MATARÓ, BARCELONA, ESPAGNE, ES0231,lat,lon,Name,Adresse, Nb de places BePark,
41.6563468,-0.8789063,Indigo - Ayuntamiento,50004 ZARAGOZA PZ DEL PILAR, ES0301,lat,lon,Name,Adresse, Nb de places BePark,
41.6546379,-0.8844492,Indigo - Cesar Augusto,AV CESAR AUGUSTO, 37 50004 ZARAGOZA SPAIN, ES0302,lat,lon,Name,Adresse, Nb de places BePark,
41.6569922,-0.8812038,Indigo - Juzgados,CALLE SALDUBA - 50004 ZARAGOZA SPAIN, ES0303,lat,lon,Name,Adresse, Nb de places BePark,
41.6538809,-0.8842152,Indigo - Salamero,PZ SALAMERO, S/N - AV CESAR AUGUSTO 50004 ZARAGOZA SPAIN, ES0304,lat,lon,Name,Adresse, Nb de places BePark,
41.6400490,-0.9032769,Indigo - Audiorama,50009 ZARAGOZA SPAIN, ES0305,lat,lon,Name,Adresse, Nb de places BePark,
41.6438732,-0.9024570,Indigo - Clínico,AV SAN JUAN BOSCO, 9-13 50009 ZARAGOZA SPAIN, ES0306,lat,lon,Name,Adresse, Nb de places BePark,
41.6516320,-0.9035585,Indigo - Capitan Pina,PS DE CALANDA, S/N 50017 ZARAGOZA SPAIN, ES0308,lat,lon,Name,Adresse, Nb de places BePark,
41.6477994,-0.9084621,Indigo - Ciudadela,VIA UNIVERSITAS, S/N 50017 ZARAGOZA SPAIN, ES0309,lat,lon,Name,Adresse, Nb de places BePark,
41.6406555,-0.8953832,Indigo - San Francisco,PZ SAN FRANCISCO, S/N 50009 ZARAGOZA SPAIN, ES0310,lat,lon,Name,Adresse, Nb de places BePark,
41.6537699,-0.9020843,Indigo - Villahermosa,50010 ZARAGOZA SPAIN, ES0311,lat,lon,Name,Adresse, Nb de places BePark,
41.6356437,-0.9110402,Indigo - Seminario,CL VIA HISPANIDAD, 20 50010 ZARAGOZA SPAIN, ES0313,lat,lon,Name,Adresse, Nb de places BePark,
41.6501593,-0.8847809,Indigo - El Carmen,CL MARQUÉS DE CASA JIMÉNEZ, S/N 50004 ZARAGOZA SPAIN, ES0314,lat,lon,Name,Adresse, Nb de places BePark,
41.6467318,-0.8839476,Indigo - San Ignacio,CL SAN IGNACIO, 8 50001 ZARAGOZA SPAIN, ES0315,lat,lon,Name,Adresse, Nb de places BePark,
41.6408000,-0.9096001,Indigo - Aragonia,AV JUAN CARLOS I, 44 50009 ZARAGOZA SPAIN, ES0316,lat,lon,Name,Adresse, Nb de places BePark,
41.6526109,-0.8806976,Indigo - Puerta Cinegia - Plaza España,CL COSO 35 - 50003 ZARAGOZA, ES0317,lat,lon,Name,Adresse, Nb de places BePark,
41.6478019,-0.8902567,Indigo - Hernan Cortes,31, HERNAN CORTES - 50005 ZARAGOZA, ES0318,lat,lon,Name,Adresse, Nb de places BePark,
39.8573467,-4.0208605,Indigo - Corralillo,CL CUESTA DE LOS CAPUCHINOS, 16 45001 TOLEDO SPAIN, ES0401,lat,lon,Name,Adresse, Nb de places BePark,
39.8719175,-4.0344227,Indigo - Bruselas,CL BRUSELAS, S/N 45005 TOLEDO SPAIN, ES0403,lat,lon,Name,Adresse, Nb de places BePark,
39.8619956,-4.0278212,Indigo - Recaredo,PS DE RECAREDO, 22 45004 TOLEDO SPAIN, ES0404,lat,lon,Name,Adresse, Nb de places BePark,
39.8613819,-4.0206302,Indigo - Miradero,CL GERARDO LOBO, S/N 45001 TOLEDO SPAIN, ES0405,lat,lon,Name,Adresse, Nb de places BePark,
36.5078116,-4.8865439,Indigo - Av. del Mar,AV DEL MAR, S/N 29600 MARBELLA SPAIN, ES0501,lat,lon,Name,Adresse, Nb de places BePark,
36.7185658,-4.4272466,Indigo - Mena,CL CEREZUELA, 3 BAJO - 29007 MÁLAGA, ES0503,lat,lon,Name,Adresse, Nb de places BePark,
36.5086584,-4.8884138,Indigo - Francisco Norte Playa,CL FRANCISCO NORTE, S/N 29602 MARBELLA SPAIN, ES0504,lat,lon,Name,Adresse, Nb de places BePark,
36.6085855,-4.5083660,Indigo - Carihuela,AV CARLOTA ALESSANDRI, S/N 29620 TORREMOLINOS SPAIN, ES0505,lat,lon,Name,Adresse, Nb de places BePark,
36.7160093,-4.2837537,Indigo - Centro Playa,PLAZA DE LA CONSTITUCIÓN, C. JAÉN, 29730 RINCÓN DE LA VICTORIA, MÁLAGA, ESPAGNE, ES0506,lat,lon,Name,Adresse, Nb de places BePark,
36.5074827,-4.8837756,Indigo - Marbell Center,CL RAFAELA APARICIO, S/N 29600 MARBELLA SPAIN, ES0507,lat,lon,Name,Adresse, Nb de places BePark,
36.5099603,-4.8865378,Indigo - Plaza de la Victoria,CL HUERTA CHICA. S/N 29601 MARBELLA SPAIN, ES0508,lat,lon,Name,Adresse, Nb de places BePark,
36.6248806,-4.4983867,Indigo - Plaza de Andalucía,PZ ANDALUCIA, S/N 29620 TORREMOLINOS SPAIN, ES0509,lat,lon,Name,Adresse, Nb de places BePark,
42.3524520,-3.6922375,Indigo - Av del Cid,CL JOSE MARÍA DE LA PUENTE, S/N 9006 BURGOS SPAIN, ES0601,lat,lon,Name,Adresse, Nb de places BePark,
41.7259224,1.8250429,Indigo - Porxada,CR DE VIC, 13 (PZ PORXADA) 8240 MANRESA SPAIN, ES0701,lat,lon,Name,Adresse, Nb de places BePark,
41.7369307,1.8269939,Indigo - San Juan de Dios,CL JAUME D'ARTERS, 13 8240 MANRESA SPAIN, ES0702,lat,lon,Name,Adresse, Nb de places BePark,
43.2847710,-2.1713967,Indigo - Fueros,20800 ZARAUTZ SPAIN, ES0801,lat,lon,Name,Adresse, Nb de places BePark,
43.2868208,-2.1766813,Indigo - Munoa,CL AMEZTI, 3 20800 ZARAUTZ SPAIN, ES0802,lat,lon,Name,Adresse, Nb de places BePark,
43.1823853,-2.4724275,Indigo - Txaltxa Zelai,CL JUAN GISASOLA, 1BIS 20600 EIBAR SPAIN, ES0803,lat,lon,Name,Adresse, Nb de places BePark,
43.1849902,-2.4668436,Indigo - Txomo,CL BIDEBARRIETA 38 - 20600 EIBAR, ES0804,lat,lon,Name,Adresse, Nb de places BePark,
43.3253959,-1.9750460,Indigo - Kursaal,AV ZURRIOLA, S/N 20002 DONOSTIA SPAIN, ES0805,lat,lon,Name,Adresse, Nb de places BePark,
40.4773365,-3.6877526,Indigo - Caleido, P.º DE LA CASTELLANA, 259E, 28046 MADRID, ES116,lat,lon,Name,Adresse, Nb de places BePark,
40.4329474,-3.6275851,Indigo - Avalon,65 CALLE SANTA LEONOR, ES117,lat,lon,Name,Adresse, Nb de places BePark,
43.3185908,-3.0200843,Indigo - San Roque,GREGORIO UZQUIANO KALEA, S/N 48920 PORTUGALETE SPAIN, ES1201,lat,lon,Name,Adresse, Nb de places BePark,
43.3232611,-3.0200180,Indigo - Zubi Alde,CL CRISTOBAL MELLO, S/N 48920 PORTUGALETE SPAIN, ES1202,lat,lon,Name,Adresse, Nb de places BePark,
41.2185875,1.5361082,Indigo - Doctor Güixens,CL JAUME CARNER, 42 43700 EL VENDRELL SPAIN, ES1302,lat,lon,Name,Adresse, Nb de places BePark,
42.8428256,-2.6734621,Indigo - Amarica,PZ AMARICA, S/N 1005 VITORIA/GAZTEIZ SPAIN, ES1401,lat,lon,Name,Adresse, Nb de places BePark,
36.7422887,-3.5215374,Indigo - Coronación,PLAZA DE LA CORONACIÓN, 18600 MOTRIL, ES1602,lat,lon,Name,Adresse, Nb de places BePark,
36.7457342,-3.5150437,Indigo - Garvayo Dinelli,CL CÁCERES S/N, BAJO 1 18600 MOTRIL SPAIN, ES1603,lat,lon,Name,Adresse, Nb de places BePark,
37.1732391,-3.5814000,Indigo - Alhambra,CAM. VIEJO DEL CEMENTERIO, 0, CENTRO, 18009 GRANADA, ESPAGNE, ES1604,lat,lon,Name,Adresse, Nb de places BePark,
37.1877028,-3.6113486,Indigo - La Caleta,PZ DE LA CALETA, S/N 18012 GRANADA SPAIN, ES1605,lat,lon,Name,Adresse, Nb de places BePark,
37.1866010,-3.6066322,Indigo - San Lázaro,PZ SAN LÁZARO, S/N 18012 GRANADA SPAIN, ES1606,lat,lon,Name,Adresse, Nb de places BePark,
42.4624510,-2.4429342,Indigo - Jorge Vigón,13 AVENIDA SOLIDARIDAD - 26006 LOGROÑO SPAIN, ES1701,lat,lon,Name,Adresse, Nb de places BePark,
42.4620994,-2.4532705,Indigo - Primavera,PLAZA PRIMAVERA, S/N LOGROÑO, ES1702,lat,lon,Name,Adresse, Nb de places BePark,
42.4652022,-2.4533716,Indigo - Gran Via,GRAN VÍA JUAN CARLOS I, 58  LOGROÑO (LA RIOJA) 26005 LOGROÑO SPAIN, ES1703,lat,lon,Name,Adresse, Nb de places BePark,
28.1056135,-15.4147109,Indigo - Triana,CL RAFAEL CABRERA, 7  35002 LAS PALMAS DE GRAN CANARIA SPAIN, ES1902,lat,lon,Name,Adresse, Nb de places BePark,
28.1224212,-15.4389761,Indigo - O'Shanahan,PZ DEL DR O’SHANAHAN, S/N 35004 LAS PALMAS DE GRAN CANARIA SPAIN, ES1904,lat,lon,Name,Adresse, Nb de places BePark,
28.1087553,-15.4170021,Indigo - San Telmo,C/ RAFAEL CABRERA S/N PARQUE SAN TELMO 35002 LAS PALMAS DE GRAN CANARIA, LAS PALMAS (ISLAS CANARIAS) 35002 LAS PALMAS DE GRAN CANARIA SPAIN, ES1905,lat,lon,Name,Adresse, Nb de places BePark,
28.1008837,-15.4653897,Indigo - Vega San José,AV MARÍTIMA, S/N 35016 LAS PALMAS DE GRAN CANARIA SPAIN, ES1906,lat,lon,Name,Adresse, Nb de places BePark,
43.2599968,-2.9322161,Indigo - Instituto,AL URQUIJO, 14 48008 BILBAO SPAIN, ES2001,lat,lon,Name,Adresse, Nb de places BePark,
43.2619977,-2.9227874,Indigo - Arenal,PS DEL ARENAL, 1  48005 BILBAO SPAIN, ES2002,lat,lon,Name,Adresse, Nb de places BePark,
43.2697341,-2.9236952,Indigo - Ciudad Jardin,LORURI ZEHARKALEA / TR CIUDAD JARDÍN, 8 48006 BILBAO SPAIN, ES2003,lat,lon,Name,Adresse, Nb de places BePark,
43.2942327,-2.9922847,Indigo - Juzgados Barakaldo,CL GERNIKAKO ARBOLA, S/N 48901 BARAKALDO SPAIN, ES2004,lat,lon,Name,Adresse, Nb de places BePark,
43.2593321,-2.9228393,Indigo - Plaza Nueva,PZ NUEVA, 16 48005 BILBAO SPAIN, ES2005,lat,lon,Name,Adresse, Nb de places BePark,
43.2609371,-2.9175548,Indigo - Polvorin,CM POLVORIN, 1 48006 BILBAO SPAIN, ES2006,lat,lon,Name,Adresse, Nb de places BePark,
37.5410092,-5.0801811,Indigo - Plaza España,PLAZA ESPAÑA, 1 41400 ECIJA SPAIN, ES2202,lat,lon,Name,Adresse, Nb de places BePark,
37.3804746,-6.0022528,Indigo - Paseo de Colón,PS DE CRISTÓBAL COLÓN, S/N 41001 SEVILLA SPAIN, ES2203,lat,lon,Name,Adresse, Nb de places BePark,
40.9689596,-5.6614141,Indigo - Campillo,PZ CAMPILLO, S/N 37002 SALAMANCA SPAIN, ES2302,lat,lon,Name,Adresse, Nb de places BePark,
40.9676970,-5.6693424,Indigo - Hospital Santísima Trinidad,AV VILLAMAYOR, 1-5 37007 SALAMANCA SPAIN, ES2303,lat,lon,Name,Adresse, Nb de places BePark,
40.9579200,-5.6652673,Indigo - Reyes de España,AV REYES DE ESPAÑA, S/N 37008 SALAMANCA SPAIN, ES2304,lat,lon,Name,Adresse, Nb de places BePark,
40.3954764,-3.6902166,Indigo - Repsol,9 LOCALIZACIONES EN ESPAÑA - R.C.P.P., SA 28045 MADRID SPAIN, ES2501,lat,lon,Name,Adresse, Nb de places BePark,
41.3825210,2.1428090,Indigo - NN Master Catalonia,1, ROSSELLO - 08029 BARCELONA, ES26,lat,lon,Name,Adresse, Nb de places BePark,
43.3547028,-5.8525291,Indigo - La Gesta,OVIEDO (PZ DE LA GESTA, S/N 33007), ES2601,lat,lon,Name,Adresse, Nb de places BePark,
42.5986022,-5.5779532,Indigo - Colon,CL ROA DE LA VEGA, 27 24001 LEÓN SPAIN, ES2604,lat,lon,Name,Adresse, Nb de places BePark,
28.1056135,-15.4147109,Indigo - Calle Privada,CL RAFAEL CABRERA, 7  35002 LAS PALMAS DE GRAN CANARIA SPAIN, ES2606,lat,lon,Name,Adresse, Nb de places BePark,
41.4090402,2.1327491,Indigo - NN La Rotonda,PS SANT GERVASI, 51-53, 08022 BARCELONA, ES2607,lat,lon,Name,Adresse, Nb de places BePark,
41.3887532,2.1308990,Indigo - NN Diagonal,AV DIAGONAL, 593-595, ES2608,lat,lon,Name,Adresse, Nb de places BePark,
41.4132907,2.1950157,Indigo - NN Espronceda,PZ VICTORIA KENT, 08018 BARCELONA, ES2609,lat,lon,Name,Adresse, Nb de places BePark,
41.3922444,2.1713897,Indigo - NN Gran Vía,GRAN VÍA LES CORTS CATALANES, 641 08010 BARCELONA, ES2610,lat,lon,Name,Adresse, Nb de places BePark,
41.4016334,2.1208221,Indigo - NN Vía Augusta,VÍA AUGUSTA, 349 - 08017 BARCELONA, ES2611,lat,lon,Name,Adresse, Nb de places BePark,
41.3977370,2.1611133,Indigo - NN Corsega,CL CÓRSEGA, 344 - 08037 BARCELONA, ES2612,lat,lon,Name,Adresse, Nb de places BePark,
41.3995473,2.1703962,Indigo - NN Valencia,VALENCIA 245, 08013 BARCELONA, ES2613,lat,lon,Name,Adresse, Nb de places BePark,
41.4078922,2.1648096,Indigo - NN Pau Alsina,CL PAU ALSINA, 32-40, 08025 BARCELONA, ES2614,lat,lon,Name,Adresse, Nb de places BePark,
41.6511158,-0.8680594,Indigo - Parque Bruil,C. DE PASCUAL ALBERO BURILLO, 50002 ZARAGOZA, ES2615,lat,lon,Name,Adresse, Nb de places BePark,
41.3867507,2.1581671,Indigo - NN Aragón,182, ARAGÓN	- 08011 BARCELONA, ES2618,lat,lon,Name,Adresse, Nb de places BePark,
41.3886857,2.1233443,Indigo - NN Pedralbes,12 LLUIS PERICOT - 08034 BARCELONA, ES2619,lat,lon,Name,Adresse, Nb de places BePark,
41.3873974,2.1685680,Indigo - NN Zona Franca,131-139, PS ZONA FRANCA	-08038 BARCELONA, ES2622,lat,lon,Name,Adresse, Nb de places BePark,
41.1558228,1.1115520,Indigo - NN Pallol,CL RAVAL DEL PALLOL, 7, ES2624,lat,lon,Name,Adresse, Nb de places BePark,
41.3779613,2.1450491,Indigo - NN Torre Nuñez i Navarro,CALLE TARRAGONA, 141-157 - 08015 BARCELONA, ES2625,lat,lon,Name,Adresse, Nb de places BePark,
41.3962917,2.1678885,Indigo - NN Concept,CALLE VALENCIA, 307 - 08009 BARCELONA, ES2626,lat,lon,Name,Adresse, Nb de places BePark,
41.4069939,2.2090475,Indigo - Torre Pujades,CL PROVENÇALS, 33 08019 BARCELONA SPAIN, ES2627,lat,lon,Name,Adresse, Nb de places BePark,
37.3638154,-5.9792507,Indigo - Hospital Virgen del Rocio,CL ANTONIO MAURA MONTANER, 2 41013 SEVILLA SPAIN, ES2628,lat,lon,Name,Adresse, Nb de places BePark,
42.2357736,-8.7077700,Indigo - Parkingal,RÚA PINO, 75 36206 VIGO SPAIN, ES2629,lat,lon,Name,Adresse, Nb de places BePark,
40.4441416,-3.6567499,Indigo - Condesa de Venadito,C/CONDESA DE VENADITO, 1 28027 MADRID 28027 MADRID SPAIN, ES2630,lat,lon,Name,Adresse, Nb de places BePark,
42.8735068,-8.5428628,Indigo - Horreo,RUA RAMÓN PIÑEIRO, S/N 15704 SANTIAGO DE COMPOSTELA SPAIN, ES2701,lat,lon,Name,Adresse, Nb de places BePark,
42.8788004,-8.5460167,Indigo - San Clemente,AV RODRIGO DE PADRÓN, S/N 17705 SANTIAGO DE COMPOSTELA SPAIN, ES2702,lat,lon,Name,Adresse, Nb de places BePark,
42.8858607,-8.5345632,Indigo - San Cayetano (S),RUA DO TOMIÑO, S/N 15704 SANTIAGO DE COMPOSTELA SPAIN, ES2703,lat,lon,Name,Adresse, Nb de places BePark,
38.9846297,-1.8450716,Indigo - Facultad Medicina,CL ALMANSA, S/N 2008 ALBACETE SPAIN, ES2801,lat,lon,Name,Adresse, Nb de places BePark,
36.8403260,-2.4592560,Indigo - La Rambla,AV FEDERICO GARCÍA LORCA, S/N 4004 ALMERÍA SPAIN, ES2901,lat,lon,Name,Adresse, Nb de places BePark,
43.5414821,-5.6625974,Indigo - Begoña,PS DE BEGOÑA, S/N 33201 GIJÓN SPAIN, ES3001,lat,lon,Name,Adresse, Nb de places BePark,
43.5422418,-5.6682540,Indigo - Espigón,CL RODRÍGUEZ SAN PEDRO,S/N 33206 GIJÓN SPAIN, ES3002,lat,lon,Name,Adresse, Nb de places BePark,
43.5652063,-5.9356872,Indigo - Hospital San Agustin,CM HEROS, S/N 33401 AVILÉS SPAIN, ES3003,lat,lon,Name,Adresse, Nb de places BePark,
36.4208285,-6.1463036,Indigo - Alameda del Río,C. ALAMEDA DEL RÍO, 11130 CHICLANA DE LA FRONTERA, CÁDIZ, ESPAGNE, ES3101,lat,lon,Name,Adresse, Nb de places BePark,
36.7826209,-6.3565257,Indigo - La Calzada,AV CALZADA DUQUESA ISABEL, S/N 11540 SANLÚCAR DE BARRAMEDA SPAIN, ES3102,lat,lon,Name,Adresse, Nb de places BePark,
43.4615490,-3.8058680,Indigo - Alfonso XIII,PL. ALFONSO XIII, 5, 39002 SANTANDER, CANTABRIA, ESPAGNE, ES3201,lat,lon,Name,Adresse, Nb de places BePark,
38.9887258,-3.9282894,Indigo - Plaza Constitución,PZ CONSTITUCIÓN, S/N 13003 CIUDAD REAL SPAIN, ES3301,lat,lon,Name,Adresse, Nb de places BePark,
37.8832719,-4.7849554,Indigo - Victoria,PS DE LA VICTORIA, S/N 14004 CÓRDOBA SPAIN, ES3401,lat,lon,Name,Adresse, Nb de places BePark,
37.2564377,-6.9471760,Indigo - Casa Colón,CL ARQUITECTO MONÍS, S/N 21003 HUELVA SPAIN, ES3501,lat,lon,Name,Adresse, Nb de places BePark,
37.3746586,-5.9988367,Indigo - Virgen de Lujan,C. VIRGEN DE LUJÁN, S/N, 41011 SEVILLA, ESPAGNE, ES3502,lat,lon,Name,Adresse, Nb de places BePark,
41.6120126,0.6281086,Indigo - Blas Infante,PZ BLAS INFANTE, S/N 25001 LLEIDA SPAIN, ES3601,lat,lon,Name,Adresse, Nb de places BePark,
41.6118500,0.6192862,Indigo - Euroforum,CL LLUIS COMPANYS,1 25001 LLEIDA SPAIN, ES3602,lat,lon,Name,Adresse, Nb de places BePark,
37.9977680,-1.1391513,Indigo - Los Pinos,AVENIDA DE LOS PINOS, AV. JUAN CARLOS I, 30009 MURCIA, ESPAGNE, ES3701,lat,lon,Name,Adresse, Nb de places BePark,
42.8148030,-1.6396685,Indigo - Plaza Toros,CL EMILIO ARRIETA, S/N 31002 PAMPLONA SPAIN, ES3801,lat,lon,Name,Adresse, Nb de places BePark,
42.1245013,-8.8490956,Indigo - La Palma,CL ARQUITECTO JESÚS VALVERDE, S/N  36300 BAIONA SPAIN, ES3901,lat,lon,Name,Adresse, Nb de places BePark,
42.2371874,-8.7277244,Indigo - Plaza Berbes,RR DEL BERBÉS, S/N 36202 VIGO SPAIN, ES3902,lat,lon,Name,Adresse, Nb de places BePark,
28.4538337,-16.2896484,Indigo - La Multa,CL JOSÉ MARÍA PEREDA, S/N 38010 SANTA CRUZ DE TENERIFE SPAIN, ES4001,lat,lon,Name,Adresse, Nb de places BePark,
28.4869120,-16.3157835,Indigo - Trinidad,AV. TRINIDAD, 5, 38204 LA LAGUNA, SANTA CRUZ DE TENERIFE, ESPAGNE, ES4002,lat,lon,Name,Adresse, Nb de places BePark,
28.0519269,-16.7154863,Indigo - Playa Los Cristianos,AV VALLE MENÉNDEZ, S/N 38650 ARONA SPAIN, ES4003,lat,lon,Name,Adresse, Nb de places BePark,
40.9451656,-4.1196590,Indigo - Acueducto,AVENIDA DEL ACUEDUCTO S/N, C. DE LOS COCHES, 3, 40002 SEGOVIA, ESPAGNE, ES4101,lat,lon,Name,Adresse, Nb de places BePark,
39.4741757,-0.3807210,Indigo - San Agustin,PZ DE SAN AGUSTÍN, S/N 46001 VALENCIA SPAIN, ES4201,lat,lon,Name,Adresse, Nb de places BePark,
39.4559441,-0.3715576,Indigo - Doctor Waksman,AV DEL DR. WAKSMAN 46006 VALENCIA SPAIN, ES4202,lat,lon,Name,Adresse, Nb de places BePark,
39.4812153,-0.3921301,Indigo - Nuevo Centro,AV PIO XII, 2 46009 VALENCIA SPAIN, ES4203,lat,lon,Name,Adresse, Nb de places BePark,
49.6017989,6.1273151,Indigo - Adolphe Fischer, Luxembourg,75 RUE ADOLPHE FISCHER L-1520 LUXEMBOURG LUXEMBOURG, 101,lat,lon,Name,Adresse, Nb de places BePark,
49.6043719,6.1371732,Indigo - Rocade, Luxembourg,RUE DU LABORATOIRE L-1911 LUXEMBOURG LUXEMBOURG, 104,lat,lon,Name,Adresse, Nb de places BePark,
49.6360432,6.1729548,Indigo - Luxexpo, Luxembourg,10 CIRCUIT DE LA FOIRE INTERNATIONALE L-1347 LUXEMBOURG LUXEMBOURG, 106,lat,lon,Name,Adresse, Nb de places BePark,
49.6082136,6.1332637,Indigo - Saint Esprit, Luxemburg,PLATEAU DU ST. ESPRIT L-1475 LUXEMBOURG LUXEMBOURG, 107,lat,lon,Name,Adresse, Nb de places BePark,
49.6173387,6.1436922,Indigo - Trois Glands, Luxembourg,RUE DU FORT THÜNGEN L-1499 LUXEMBOURG LUXEMBOURG, 108,lat,lon,Name,Adresse, Nb de places BePark,
49.6189657,6.1404688,Indigo - Place de l'Europe Luxembourg, Luxembourg,AVENUE J.F. KENNEDY L-1499 LUXEMBOURG LUXEMBOURG, 109,lat,lon,Name,Adresse, Nb de places BePark,
49.6176626,6.1261148,Indigo - Rond Point Schuman, Luxembourg,L-2525 LUXEMBOURG LUXEMBOURG, 110,lat,lon,Name,Adresse, Nb de places BePark,
49.6093867,6.1334178,Indigo - Clairefontaine, Luxembourg,19 RUE DU ST. ESPRIT L-1475 LUXEMBOURG LUXEMBOURG, 111,lat,lon,Name,Adresse, Nb de places BePark,
49.6216720,6.1197435,Indigo - Tramschaap, Luxembourg,72 AVENUE PASTEUR L-2310 LUXEMBOURG LUXEMBOURG, 115,lat,lon,Name,Adresse, Nb de places BePark,
49.5971475,6.1359753,Indigo - Piscine Bonnevoie, Luxembourg,RUE DES ARDENNES L-1133 LUXEMBOURG LUXEMBOURG, 117,lat,lon,Name,Adresse, Nb de places BePark,
49.6005597,6.1320199,Indigo - Plaza Liberty, Luxembourg,12-18 RUE JOSEPH JUNK L-1839 LUXEMBOURG LUXEMBOURG, 118,lat,lon,Name,Adresse, Nb de places BePark,
49.6288111,6.1649861,Indigo - Bibliothèque nationale du Luxembourg , Luxembourg,37D AVENUE JOHN F. KENNEDY L-1855 LUXEMBOURG LUXEMBOURG, 120,lat,lon,Name,Adresse, Nb de places BePark,
49.5833404,6.1257691,Indigo - La Cloche d'Or, Hesperange,RUE ALBERT EINSTEIN L-5826 LUXEMBOURG LUXEMBOURG, 121,lat,lon,Name,Adresse, Nb de places BePark,
49.6021339,6.1351291,Indigo - Fort Neipperg, Luxembourg,43 RUE DU FORT NEIPPERG L-2230 LUXEMBOURG LUXEMBOURG, 122,lat,lon,Name,Adresse, Nb de places BePark,
49.6360922,6.1747348,Indigo - Gernsback, Luxemburg,32 RUE HUGO GERNSBACK L-1652 LUXEMBOURG LUXEMBOURG, 123,lat,lon,Name,Adresse, Nb de places BePark,
49.6172692,6.1639970,Indigo - Cents, Luxembourg,38, RUE LEON KAUFFMAN L-1853 LUXEMBOURG LUXEMBOURG, 124,lat,lon,Name,Adresse, Nb de places BePark,
49.5884058,6.1387963,Indigo - Orchimont, Luxembourg,32 RUE D’ORCHIMONT L-2268 LUXEMBOURG LUXEMBOURG, 126,lat,lon,Name,Adresse, Nb de places BePark,
50.8558770,4.3316378,Indigo - Parking Stade de Luxembourg (New), ,Rue d'Ostende, LU0127,lat,lon,Name,Adresse, Nb de places BePark,
49.5014630,5.9430894,Indigo - Kampoos, Esch-sur-Alzette,1 AVENUE DU SWING L-4367 ESCH-SUR-ALZETTE LUXEMBOURG, LU0207,lat,lon,Name,Adresse, Nb de places BePark,
49.5024342,5.9722212,Indigo - Camionette Cloos, Esch-sur-Alzette,ESCH-SUR-ALZETTE LUXEMBOURG, LU0208,lat,lon,Name,Adresse, Nb de places BePark,
49.5227050,5.8955761,Indigo - Parking Gravity, ,62a Rue Emile Mark, LU0507,lat,lon,Name,Adresse, Nb de places BePark,
49.4804136,6.0844810,Indigo - Am Duerf, Düdelingen,4 AM DUERF L-3436 DUDELANGE LUXEMBOURG, LU0602,lat,lon,Name,Adresse, Nb de places BePark,
49.9006821,5.8835996,Indigo - Parking P1 + P2 Insenborn, ,11 Insenborn, LU0802,lat,lon,Name,Adresse, Nb de places BePark,
48.8586386,2.3497455,Indigo - Parking Néi Mëtt, ,7, Rue St. Martin, LU0902,lat,lon,Name,Adresse, Nb de places BePark,
48.7303701,7.9070298,Indigo - Parking Drusenheim, ,2 Rue de Drusenheim, LU1602,